STORE_ID,DISPLAY_NAME,ADDRESS_1,ADDRESS_2,CITY,STATE,ZIPCODE,PHONE_NUMBER
31241,Lakeview Plaza,15754 South LaGrange Road,Lakeview Plaza,Orland Park,IL,60462,1-708-349-8898
31242,Danada Square West,112 Danada Square West,Danada Square West,Wheaton,IL,60187,1-630-221-0215
31246,The Quarry Shopping Center,9270 Joliet Road,The Quarry Shopping Center,Hodgkins,IL,60525,1-708-485-9120
31255,Woodfield Village Green,1480 Golf Road,Woodfield Village Green,Schaumburg,IL,60173,1-847-240-2723
31257,North & Sheffield Commons,"1000 West North Avenue, Suite D103",North & Sheffield Commons,Chicago,IL,60622,1-312-664-0230
31259,Barrett Pavilion,680 Barrett Parkway,Barrett Pavilion,Kennesaw,GA,30144,1-770-419-2755
31267,Scottsdale Pavilions,9019 East Talking Stick Way,Scottsdale Pavilions,Scottsdale,AZ,85250,1-480-905-1099
31269,Camelback Colonnade Shopping Center,"1949 East Camelback Road, Suite 146",Camelback Colonnade Shopping Center,Phoenix,AZ,85016,1-602-264-0003
31271,Village Fair North Shopping Center,12867 North Tatum Boulevard,Village Fair North Shopping Center,Phoenix,AZ,85032,1-602-953-5009
31274,The Gap Shopping Center,4115 North Harlem Avenue,The Gap Shopping Center,Norridge,IL,60706,1-708-457-1708
31275,The Crossings at Hobart,2395 East 81st Avenue,The Crossings at Hobart,Merrillville,IN,46410,1-219-736-5287
31276,Preston Forest Village,"11661 Preston Road, Suite 232",Preston Forest Village,Dallas,TX,75230,1-214-739-3091
31277,Heritage Point Shopping Center,2540 Cumberland Boulevard,Heritage Point Shopping Center,Smyrna,GA,30080,1-770-432-4775
31278,Clark & Wellington Shopping Center,3015 North Clark Street,Clark & Wellington Shopping Center,Chicago,IL,60657,1-773-348-7315
31281,Arrowhead Crossing Shopping Center,7665 West Bell Road,Arrowhead Crossing Shopping Center,Peoria,AZ,85382,1-623-486-5055
31288,Levittown Mews,3377 Hempstead Turnpike,Levittown Mews,Levittown,NY,11756,1-516-579-5163
31289,LAKE GROVE #55,2005 Smith Haven Plaza,LAKE GROVE #55,Lake Grove,NY,11755,1-631-979-3473
31291,Mesa Pavilions at Superstition,6948 East Hampton Avenue,Mesa Pavilions at Superstition,Mesa,AZ,85209,1-480-396-7440
31292,Shoppes at the Meadows,8368 South Willow Street,Shoppes at the Meadows,Littleton,CO,80124,1-303-706-9611
31296,The Shops at Oak Brook Place,"2155 West 22nd Street, Suite 7",The Shops at Oak Brook Place,Oak Brook,IL,60523,1-630-573-9324
31299,Ridgehaven Mall,13145 Ridgedale Drive,Ridgehaven Mall,Minnetonka,MN,55305,1-952-540-1012
31300,Gateway Plaza,499 Sunrise Highway,Gateway Plaza,Patchogue,NY,11772,1-631-758-4603
31301,Grand Hunt Shopping Center,6517 Grand Avenue,Grand Hunt Shopping Center,Gurnee,IL,60031,1-847-856-1002
31302,King Kullen Plaza,78 Veterans Memorial Highway,King Kullen Plaza,Commack,NY,11725,1-631-499-2639
31303,Randall Square,1560 South Randall Road,Randall Square,Geneva,IL,60134,1-630-232-1320
31304,University Hills Shopping Center,"2780 South Colorado Boulevard, Suite 310",University Hills Shopping Center,Denver,CO,80222,1-303-756-7989
31306,Buckhead Station Shopping Center,"3495 Buckhead Loop, Suite 120",Buckhead Station Shopping Center,Atlanta,GA,30326,1-404-266-3559
31309,Gateway Market Shopping Center,"9607 Research Boulevard, Suite 600",Gateway Market Shopping Center,Austin,TX,78759,1-512-794-0708
31311,The Promenade at Frank Lloyd W,16231 North Scottsdale Road,The Promenade at Frank Lloyd W,Scottsdale,AZ,85254,1-480-609-1009
31312,Snellville Pavilion,"2059 Scenic Highway, Suite 107",Snellville Pavilion,Snellville,GA,30078,1-770-979-7151
31314,Mall of Georgia Crossing,"3205 Woodward Crossing Boulevard, Suite 220",Mall of Georgia Crossing,Buford,GA,30519,1-678-482-1887
31315,Baybrook Village,1507B West Bay Area Boulevard,Baybrook Village,Webster,TX,77598,1-281-557-1715
31316,Trinity Commons,"3000 South Hulen St, Suite 130",Trinity Commons,Fort Worth,TX,76109,1-817-292-9575
31317,Deerbrook Marketplace,20530 US Highway 59 North,Deerbrook Marketplace,Humble,TX,77338,1-281-548-0180
31318,The Court of Oxford Valley,146 Commerce Boulevard,The Court of Oxford Valley,Fairless Hills,PA,19030,1-215-269-9848
31320,Concord Mall,4803 Concord Pike,Concord Mall,Wilmington,DE,19803,1-302-479-9917
31321,Collin Creek Village,"721 North Central Expressway, Suite 300",Collin Creek Village,Plano,TX,75075,1-972-633-3853
31322,Montgomery Square,1221 Knapp Road,Montgomery Square,North Wales,PA,19454,1-215-616-4601
31324,West Ridge Court,"2707 Aurora Avenue, Suite 123",West Ridge Court,Naperville,IL,60540,1-630-527-0065
31325,Round Rock,"2701 Parker Road, Bldg C",Round Rock,Round Rock,TX,78681,1-512-310-7051
31326,Gateway Plaza,2900 East Southlake Boulevard,Gateway Plaza,Southlake,TX,76092,1-817-749-0582
31327,Greentree Retail Center,455 South Fry Road,Greentree Retail Center,Katy,TX,77450,1-281-646-8808
31328,The Shops at North East Mall,880 Northeast Mall Boulevard,The Shops at North East Mall,Hurst,TX,76053,1-817-590-8057
31329,Lakewood City Commons,489 South Wadsworth Boulevard,Lakewood City Commons,Lakewood,CO,80226,1-303-984-0202
31330,Broadcasting Square Shopping Center,2755 Paper Mill Road,Broadcasting Square Shopping Center,Wyomissing,PA,19610,1-610-372-9939
31331,Old Orchard Place Mall,9635 Skokie Boulevard,Old Orchard Place Mall,Skokie,IL,60077,1-847-675-7320
31332,Center at Preston Ridge,3333 Preston Road,Center at Preston Ridge,Frisco,TX,75034,1-972-668-4171
31333,Chandler Festival,2680 West Chandler Boulevard,Chandler Festival,Chandler,AZ,85224,1-480-792-0457
31334,Silverado Ranch Plaza,9857 South Eastern Avenue,Silverado Ranch Plaza,Las Vegas,NV,89183,1-702-270-2410
31335,Metroplex Shopping Center,2540 Chemical Road,Metroplex Shopping Center,Plymouth Meeting,PA,19462,1-610-834-8323
31337,Creekside Town Center,"1232 Galleria Boulevard, Suite 100",Creekside Town Center,Roseville,CA,95678,1-916-780-1117
31338,East Gate Square,1470 Nixon Drive,East Gate Square,Mt. Laurel,NJ,8054,1-856-642-7390
31339,Woodstock Shopping Center,124 Woodstock Square Avenue,Woodstock Shopping Center,Woodstock,GA,30189,1-678-494-0081
31340,Willow Ridge Plaza,720 Route 73S,Willow Ridge Plaza,Marlton,NJ,8053,1-856-596-9484
31342,Desert Ridge Shopping Center,"21001 North Tatum Boulevard, Suite 72",Desert Ridge Shopping Center,Phoenix,AZ,85050,1-480-502-4331
31343,Nassau Park Pavilion,540 Nassau Park Boulevard,Nassau Park Pavilion,Princeton,NJ,8540,1-609-452-1266
31344,Laguna Gateway,9141 West Stockton Boulevard,Laguna Gateway,Elk Grove,CA,95758,1-916-478-2610
31345,The Shops at Kildeer,"20505 North Rand Road, Suite 220",The Shops at Kildeer,Kildeer,IL,60047,1-847-550-9309
31346,Jefferson Pointe Shopping Center,"4220 West Jefferson Boulevard, Suite 4",Jefferson Pointe Shopping Center,Fort Wayne,IN,46804,1-260-459-0041
31347,Paddock Shops,4292 Summit Plaza Drive,Paddock Shops,Louisville,KY,40241,1-502-326-9958
31349,La Jolla Village Square,8657 Villa La Jolla Drive,La Jolla Village Square,La Jolla,CA,92037,1-858-202-0612
31350,The Stacks at the Waterfront,105 West Bridge Street,The Stacks at the Waterfront,Homestead,PA,15120,1-412-461-4913
31355,Clybourn Square,"2754 North Clybourn Avenue, Space A2",Clybourn Square,Chicago,IL,60614,1-773-472-6720
31356,Riverdale Village,3583 River Rapids Drive,Riverdale Village,Coon Rapids,MN,55448,1-763-323-0664
31357,City Place at the Promenade,82 The Promenade,City Place at the Promenade,Edgewater,NJ,7020,1-201-313-0049
31358,Marketplace at Birdcage,5927 Sunrise Boulevard,Marketplace at Birdcage,Citrus Heights,CA,95610,1-916-535-0021
31359,Holmdel Commons,2130 Route 35 South,Holmdel Commons,Holmdel,NJ,7733,1-732-796-9300
31360,Cary Crossroads,409 Crossroads Boulevard,Cary Crossroads,Cary,NC,27518,1-919-859-1970
31362,Quail Springs Marketplace,2340 West Memorial Road,Quail Springs Marketplace,Oklahoma City,OK,73134,1-405-302-4900
31363,South Park Shopping Center,"3220 Nicholasville Road, Suite 147",South Park Shopping Center,Lexington,KY,40503,1-859-272-1022
31365,Southroads Shopping Center,4915 A East 41st Street,Southroads Shopping Center,Tulsa,OK,74135,1-918-664-5916
31366,The Forum at Carlsbad,1905 Calle Barcelona,The Forum at Carlsbad,Carlsbad,CA,92009,1-760-635-1625
31367,The Shops at Briargate,"1845 Briargate Parkway, Suite 407",The Shops at Briargate,Colorado Springs,CO,80920,1-719-548-9895
31368,Stonecrest Center,7844 Rea Road,Stonecrest Center,Charlotte,NC,28277,1-704-540-9090
31369,El Camino North,2645 Vista Way Retail,El Camino North,Oceanside,CA,92054,1-760-439-2704
31370,The Shoppes at Arbor Lakes,12181 Elm Creek Boulevard,The Shoppes at Arbor Lakes,Maple Grove,MN,55369,1-763-425-5385
31371,Village Crossing Shopping Center,5481 Touhy Avenue,Village Crossing Shopping Center,Skokie,IL,60077,1-847-329-1445
31373,Hunt Valley Towne Centre,"118 Shawan Road, Suite O",Hunt Valley Towne Centre,Cockeysville,MD,21030,1-410-527-9960
31376,Best Buy Center,6575 Frontier Drive,Best Buy Center,Springfield,VA,22150,1-703-971-7900
31377,Hastings Village Shopping Center,3393 East Foothill Boulevard,Hastings Village Shopping Center,Pasadena,CA,91107,1-626-351-3297
31380,Chino Spectrum Towne Center,4041 Grand Avenue,Chino Spectrum Towne Center,Chino,CA,91710,1-909-627-2466
31381,Cotswold Village Shops,236 South Sharon Amity Road,Cotswold Village Shops,Charlotte,NC,28211,1-704-442-8404
31382,Hacienda Crossings,4948 Dublin Boulevard,Hacienda Crossings,Dublin,CA,94568,1-925-828-5040
31383,Plaza on Richmond,5140 Richmond Avenue,Plaza on Richmond,Houston,TX,77056,1-713-621-9120
31384,Commons at Willowbrook,7744 FM 1960 Road W,Commons at Willowbrook,Houston,TX,77070,1-281-894-7182
31385,Bell Tower,"13499 South Cleveland Avenue, Suite 301",Bell Tower,Ft. Myers,FL,33907,1-239-334-0659
31386,Waterford Lakes Town Center,841 Alafaya Trail,Waterford Lakes Town Center,Orlando,FL,32828,1-407-384-8488
31387,The Plaza at Citrus Park,12715 Citrus Plaza Drive,The Plaza at Citrus Park,Tampa,FL,33625,1-813-926-7110
31388,Downtown Silver Spring,914 Ellsworth Drive,Downtown Silver Spring,Silver Spring,MD,20910,1-301-588-8744
31389,Cerritos Towne Center,12771 Towne Center Drive,Cerritos Towne Center,Cerritos,CA,90703,1-562-403-0229
31390,West Hollywood Gateway,"7100 Santa Monica Boulevard, Suite 210",West Hollywood Gateway,West Hollywood,CA,90046,1-323-878-2524
31391,Palm Valley Pavilions West,1450 North Litchfield Road,Palm Valley Pavilions West,Goodyear,AZ,85395,1-623-935-4186
31392,Victoria Gardens,7905 Kew Avenue,Victoria Gardens,Rancho Cucamonga,CA,91739,1-909-646-7012
31393,Peoria Crossings,9280 West Northern Avenue,Peoria Crossings,Glendale,AZ,85345,1-623-772-0733
31394,Kendallgate Shopping Center,12054 Southwest 88th Street,Kendallgate Shopping Center,Miami,FL,33186,1-305-598-2440
31395,Pembroke Crossings,11850 Pines Boulevard,Pembroke Crossings,Pembroke Pines,FL,33026,1-954-438-6330
31398,Central Park Shopping Center,1696 Carl D. Silver Parkway,Central Park Shopping Center,Fredericksburg,VA,22401,1-540-786-3338
31399,Silver Lake Village Shopping Center,3133 Silver Lake Village Drive,Silver Lake Village Shopping Center,Pearland,TX,77584,1-713-436-6955
31400,Huntington Beach,"7777 Edinger Avenue, Suite 130",Huntington Beach,Huntington Beach,CA,92647,1-714-891-9708
31401,Congressional Plaza,1631 Rockville Pike,Congressional Plaza,Rockville,MD,20852,1-301-231-5386
31402,Fashion Mall Commons,"8487 Union Chapel Road, Unit 720",Fashion Mall Commons,Indianapolis,IN,46240,1-317-251-0920
31403,Monroeville Mall,701 Monroeville Mall,Monroeville Mall,Monroeville,PA,15146,1-412-374-1318
31404,Park Place Mall,"5870 East Broadway Boulevard, Suite 442",Park Place Mall,Tucson,AZ,85711,1-520-512-4645
31405,Chesterfield Towne Center,"11500 Midlothian Turnpike, Suite 800",Chesterfield Towne Center,Richmond,VA,23235,1-804-594-7040
31406,Fremont Hub Retail Center,39221 Fremont Hub,Fremont Hub Retail Center,Fremont,CA,94538,1-510-796-1437
31407,Tamarack Shopping Center,8290 Tamarack Village,Tamarack Shopping Center,Woodbury,MN,55125,1-651-738-1654
31408,Colonies Crossroads,1927 North Campus Avenue,Colonies Crossroads,Upland,CA,91784,1-909-931-0608
31410,Surprise Marketplace,13707 West Bell Road,Surprise Marketplace,Surprise,AZ,85374,1-623-214-2779
31411,Brookfield Fashion Center,16970 West Blue Mound Road,Brookfield Fashion Center,Brookfield,WI,53005,1-262-785-0980
31412,Fair City Mall,"9600 Main Street, Suite U",Fair City Mall,Fairfax,VA,22031,1-703-426-5313
31413,Gateway Station,12864 South Freeway,Gateway Station,Burleson,TX,76028,1-817-426-4428
31414,Alderwood,"19401 Alderwood Mall Parkway, Suite 130",Alderwood,Lynnwood,WA,98036,1-425-673-0405
31415,Renaissance Center IV,6923 Fayetteville Road,Renaissance Center IV,Durham,NC,27713,1-919-405-2223
31417,San Tan Marketplace,2779 South Market Street,San Tan Marketplace,Gilbert,AZ,85295,1-480-726-3777
31418,Happy Valley Towne Center,"2501 West Happy Valley Road, Suite 38",Happy Valley Towne Center,Phoenix,AZ,85085,1-623-581-6766
31419,Tempe Marketplace,"55 South McClintock Drive, Suite 155",Tempe Marketplace,Tempe,AZ,85281,1-480-968-8200
31420,Rockaway Towne Plaza,"395 Mount Hope Avenue, Suite 450",Rockaway Towne Plaza,Rockaway,NJ,7866,1-973-361-4644
31421,Prestonwood Town Center,"5301 Belt Line Road, Suite 114",Prestonwood Town Center,Dallas,TX,75254,1-972-788-4071
31422,Cedar Hills Crossings,"3255 Southwest Cedar Hills Boulevard, Suite 150",Cedar Hills Crossings,Beaverton,OR,97005,1-503-643-7080
31423,The Promenade at Sacramento Gateway,3591 North Freeway Boulevard,The Promenade at Sacramento Gateway,Sacramento,CA,95834,1-916-285-6450
31425,Parkway Super Center,17320 South Center Parkway,Parkway Super Center,Tukwila,WA,98188,1-206-575-1444
31426,The Shops at Greenridge,"1125 Woodruff Road, Suite 1191",The Shops at Greenridge,Greenville,SC,29607,1-864-288-7444
31427,Mayfaire Towne Center,840 Inspiration Drive,Mayfaire Towne Center,Wilmington,NC,28405,1-910-509-2122
31429,Jordan Creek Town Center,"6805 Mills Civic Parkway, Suite 110",Jordan Creek Town Center,West Des Moines,IA,50266,1-515-224-4717
31433,Oracle Wetmore,4368 North Oracle,Oracle Wetmore,Tucson,AZ,85705,1-520-888-0806
31434,Shops at Coconut Point,8054 Mediterranean Drive,Shops at Coconut Point,Estero,FL,33928,1-239-992-0361
31435,Mt. Pleasant Towne Centre,1740 Towne Centre Way,Mt. Pleasant Towne Centre,Mt. Pleasant,SC,29464,1-843-856-8500
31436,Bridgepointe Shopping Center,3010 Bridgepointe Parkway,Bridgepointe Shopping Center,San Mateo,CA,94404,1-650-638-1473
31437,Sparks Crossing,177 Los Altos Parkway,Sparks Crossing,Sparks,NV,89436,1-775-626-5325
31438,Logan Town Center,205 Falon Lane,Logan Town Center,Altoona,PA,16602,1-814-942-8571
31439,Arlington Highlands,"4000 Retail Connection Way, Suite 113",Arlington Highlands,Arlington,TX,76018,1-817-468-2244
31441,The Village at Sandhill,214 Forum Drive,The Village at Sandhill,Columbia,SC,29229,1-803-462-1488
31442,The District at Tustin Legacy,2863 Park Avenue,The District at Tustin Legacy,Tustin,CA,92780,1-714-566-1706
31443,York Town Center,2835 Concord Road,York Town Center,York,PA,17402,1-717-751-0422
31444,Brookside Marketplace,7350 West 191st Street,Brookside Marketplace,Tinley Park,IL,60487,1-815-806-2659
31445,The Shops at Perry Crossing,"301 Marketplace Mile, Suite 120",The Shops at Perry Crossing,Plainfield,IN,46168,1-317-837-9652
31446,The Crossing at Corona,"2541 Tuscany Street, Suite 103",The Crossing at Corona,Corona,CA,92881,1-951-582-0833
31447,The Avenue at White Marsh,8165-C Honeygo Boulevard,The Avenue at White Marsh,Baltimore,MD,21236,1-410-931-4902
31448,The Shoppes at Orange Plaza,444 Route 211 East,The Shoppes at Orange Plaza,Middletown,NY,10940,1-845-344-1997
31449,Winter Park Village,520 North Orlando Avenue,Winter Park Village,Winter Park,FL,32789,1-407-643-9129
31450,The Rim,17414 La Cantera Parkway,The Rim,San Antonio,TX,78257,1-210-877-9908
31451,Hunters Square,30837 Orchard Lake Road,Hunters Square,Farmington Hills,MI,48334,1-248-539-5819
31452,Miracle Marketplace,"3301 Southwest 22nd Street, Suite 203",Miracle Marketplace,Miami,FL,33145,1-305-704-6811
31453,Cross Point Center,"5075 Morganton Road, Suite 9",Cross Point Center,Fayetteville,NC,28314,1-910-487-0281
31454,Marketplace Boulevard,2295 Market Place Boulevard,Marketplace Boulevard,Cumming,GA,30041,1-770-887-2429
31455,Marketplace on First,"4651 1st  Avenue Southeast, Suite 3",Marketplace on First,Cedar Rapids,IA,52402,1-319-294-3100
31456,Abercorn Common,"8108 Abercorn Street, Suite 310",Abercorn Common,Savannah,GA,31406,1-912-920-3316
31457,The District at Howell Mill,"1801 Howell Mill Road, Suite 240",The District at Howell Mill,Atlanta,GA,30318,1-404-355-1326
31458,Parkdale Mall,"6155 Eastex Freeway, Suite C-350",Parkdale Mall,Beaumont,TX,77706,1-409-892-2083
31459,Superstition Gateway,1614 South Signal Butte Road,Superstition Gateway,Mesa,AZ,85209,1-480-357-8181
31460,The Forum at Ashley Park,338 Newnan Crossing Bypass,The Forum at Ashley Park,Newnan,GA,30265,1-770-252-2268
31461,Arroyo Market Square,"7265 Arroyo Crossing Parkway, Suite 110",Arroyo Market Square,Las Vegas,NV,89113,1-702-263-0315
31462,Lake Pleasant Towne Center,10084 West Happy Valley Parkway,Lake Pleasant Towne Center,Peoria,AZ,85383,1-623-825-2652
31463,Winter Garden Village at Fowler Grove,3203 Daniels Road,Winter Garden Village at Fowler Grove,Winter Garden,FL,34787,1-407-656-0051
31464,Cameron Crossing,"1751 North Central Expressway, Building G #100",Cameron Crossing,McKinney,TX,75070,1-972-542-9192
31465,Mooresville Crossing,609 River Highway,Mooresville Crossing,Mooresville,NC,28117,1-704-664-2745
31466,Canyon West,6070 Marsha Sharp Freeway,Canyon West,Lubbock,TX,79407,1-806-799-2212
31467,Columbia Tech Center,16521 Southeast Mill Plain Boulevard,Columbia Tech Center,Vancouver,WA,98684,1-360-896-4397
31468,The Shops at Fox Valley,3206 Shoppers Drive,The Shops at Fox Valley,McHenry,IL,60050,1-815-344-2028
31469,Gateway Overlook,8241 Gateway Overlook Drive,Gateway Overlook,Elkridge,MD,21075,1-410-290-0022
31470,Fort Smith Pavilion,3985 Phoenix Avenue,Fort Smith Pavilion,Fort Smith,AR,72903,1-479-646-7236
31471,The Columns,1151 Vann Drive,The Columns,Jackson,TN,38305,1-731-512-0419
31472,Green Oak Village Place,9830 Village Place Boulevard,Green Oak Village Place,Brighton,MI,48116,1-810-225-0365
31473,Fair Lakes Center,13048 A  Fair Lakes Center,Fair Lakes Center,Fairfax,VA,22033,1-703-222-6060
31475,University Commons,1461-B University Drive,University Commons,Burlington,NC,27215,1-336-538-2025
31477,Southland Mall,"20505 South Dixie Highway, Suite 605",Southland Mall,Miami,FL,33189,1-305-969-8029
31478,Grand Plaza,185 South Las Posas Drive,Grand Plaza,San Marcos,CA,92078,1-760-744-0853
31479,Prairie Market,2510 Route 34,Prairie Market,Oswego,IL,60543,1-630-554-4625
31480,Silver Springs Square,"6416 Carlisle Pike, Suite 2400",Silver Springs Square,Mechanicsburg,PA,17050,1-717-766-7100
31481,Shops at Isla Verde,1020 South State Road 7,Shops at Isla Verde,Wellington,FL,33414,1-561-204-2446
31482,Washington St.,"103 South Washington Street, Suite 109",Washington St.,Naperville,IL,60540,1-630-718-0609
31483,Miami Beach,337 Lincoln Road,Miami Beach,Miami Beach,FL,33139,1-305-538-7316
31485,Beaver Creek Crossing,1521 Beaver Creek Commons Driveiv,Beaver Creek Crossing,Apex,NC,27502,1-919-362-0415
31486,Harvest Junction North,"210 Ken Pratt Boulevard, Suite 160",Harvest Junction North,Longmont,CO,80501,1-303-776-0354
31487,The Grove at Wesley Chapel,5953 Wesley Grove Boulevard,The Grove at Wesley Chapel,Wesley Chapel,FL,33544,1-813-991-7220
31488,The Avenue at Murfreesboro,"2615 Medical Center Parkway, #800",The Avenue at Murfreesboro,Murfreesboro,TN,37129,1-615-849-7454
31489,Crossroads of Roseville,1655 County Road B2 West,Crossroads of Roseville,Roseville,MN,55113,1-651-239-1640
31490,Southlands,"24101 East Orchard Road, Unit D",Southlands,Aurora,CO,80016,1-303-627-0060
31491,Baldwin Commons,4830 South Baldwin,Baldwin Commons,Orion Township,MI,48359,1-248-393-2769
31492,Nyberg Woods,7081 Southwest Nyberg Street,Nyberg Woods,Tualatin,OR,97062,1-503-692-1501
31493,Conroe Marketplace,2928 I-45 North,Conroe Marketplace,Conroe,TX,77303,1-936-494-4030
31494,Burbank Empire Center,1351 North Victory Place,Burbank Empire Center,Burbank,CA,91502,1-818-565-5646
31495,Waterside Marketplace,50523 Waterside Drive,Waterside Marketplace,Chesterfield Township,MI,48051,1-586-949-4617
31496,Columbus Park Crossing,"5550 Whittlesey Road, Suite 600",Columbus Park Crossing,Columbus,GA,31909,1-706-660-1858
31497,Dayton Mall - Streetscape,2700 Miamisburg Centerville Road #864,Dayton Mall - Streetscape,Dayton,OH,45459,1-937-291-0196
31498,L Street Marketplace,12430 K Plaza,L Street Marketplace,Omaha,NE,68137,1-402-330-1569
31499,Horsham Gate,"100 Welsh Road, Suite 102",Horsham Gate,Horsham,PA,19044,1-215-659-1816
31500,The Commons at Southtowne,10409 South State Street,The Commons at Southtowne,Sandy,UT,84070,1-801-572-0382
31501,Alpine Summit Shopping Center,"3165 Alpine Avenue, Suite B",Alpine Summit Shopping Center,Walker,MI,49544,1-616-784-2410
31502,Vintage Commons,"3900 Sisk Road, Suite J1",Vintage Commons,Modesto,CA,95356,1-209-543-3871
31503,The Promenade at Bolingbrook,"641 East Boughton Road, Suite 100",The Promenade at Bolingbrook,Bolingbrook,IL,60440,1-630-783-0018
31504,Plaza at Rockwall,999 East I.H. 30,Plaza at Rockwall,Rockwall,TX,75087,1-972-772-5014
31505,Southpark Meadows Shopping Center,"9500 South IH 35 Service Road SB, Building I",Southpark Meadows Shopping Center,Austin,TX,78748,1-512-292-1784
31506,The Landing at Tradition,10740 Southwest Village Parkway,The Landing at Tradition,Port St. Lucie,FL,34987,1-772-345-2740
31507,Bridgewater Falls,3347 Princeton Road,Bridgewater Falls,Hamilton,OH,45011,1-513-863-6200
31508,The Plaza At Southpark,16640 Royalton Road,The Plaza At Southpark,Strongsville,OH,44136,1-440-238-0371
31509,Robertson's Creek,"5801 Long Prairie Road, Suite 120",Robertson's Creek,Flower Mound,TX,75028,1-972-539-3762
31510,Coastal Grand Mall,710 Coastal Grand Circle,Coastal Grand Mall,Myrtle Beach,SC,29577,1-843-448-0900
31511,Algonquin Commons,1804 South Randall Road,Algonquin Commons,Algonquin,IL,60102,1-847-458-0743
31512,The Shops at Soncy,2814 South Soncy Road,The Shops at Soncy,Amarillo,TX,79124,1-806-355-1176
31513,The Plant,31 Curtner Avenue,The Plant,San Jose,CA,95125,1-408-924-0718
31514,Westgate Marketplace,6417 Southwest 3rd Street,Westgate Marketplace,Oklahoma City,OK,73127,1-405-491-6223
31515,Northgate Mall,"401 Northeast Northgate Way, Suite 1110",Northgate Mall,Seattle,WA,98125,1-206-367-3462
31516,University Town Center,103 North Cattlemen Road,University Town Center,Sarasota,FL,34243,1-941-351-6037
31517,The Mercato,"9100 Strada Place, Suite 2105",The Mercato,Naples,FL,34108,1-239-514-0151
31518,Towne Place at Garden State Park,907 Haddonfield Road,Towne Place at Garden State Park,Cherry Hill,NJ,8002,1-856-662-2947
31519,Canton Marketplace,"1810 Cumming Highway, Suite 640",Canton Marketplace,Canton,GA,30115,1-770-479-4656
31520,Villaggio Retail Center,7911 North Blackstone Avenue,Villaggio Retail Center,Fresno,CA,93720,1-559-490-0907
31521,North Haven Commons,370 North Universal Drive,North Haven Commons,North Haven,CT,6473,1-203-234-1489
31522,Burnhaven Mall,830 County Road 42 West,Burnhaven Mall,Burnsville,MN,55337,1-952-435-0001
31523,The Village at Colony Place,188 Colony Place,The Village at Colony Place,Plymouth,MA,2360,1-508-746-4811
31524,Dothan Pavilion,"4401 Montgomery Highway, Suite 500",Dothan Pavilion,Dothan,AL,36303,1-334-671-7003
31525,Westgate Mall,3181 Westgate,Westgate Mall,Fairview Park,OH,44126,1-440-331-4078
31526,Shadow Lake Towne Center,7701 Towne Center Parkway,Shadow Lake Towne Center,Papillion,NE,68046,1-402-592-1190
31528,Manchester Highlands,121 Highlands Boulevard Drive,Manchester Highlands,Manchester,MO,63011,1-636-527-6974
31529,Oakleaf Town Center,9625 Crosshill Boulevard,Oakleaf Town Center,Jacksonville,FL,32222,1-904-771-1162
31530,Promenade at Casa Grande,"1004 North Promenade Parkway, Suite 136",Promenade at Casa Grande,Casa Grande,AZ,85194,1-520-836-2313
31532,Eastchase Market Center,7981 Eastchase Parkway,Eastchase Market Center,Montgomery,AL,36117,1-334-271-2656
31533,North Attleboro Marketplace,"1360 South Washington Street, Unit 1",North Attleboro Marketplace,North Attleboro,MA,2760,1-508-695-0512
31534,Market Heights Shopping Center,"201 East Central Texas Expressway, Suite 400",Market Heights Shopping Center,Harker Heights,TX,76548,1-254-690-1329
31535,Best in the West,2186 North Rainbow Boulevard,Best in the West,Las Vegas,NV,89108,1-702-631-3668
31536,El Paseo Marketplace,1864 Joe Battle Boulevard,El Paseo Marketplace,El Paso,TX,79936,1-915-857-0632
31537,Sunland Plaza,"813 Sunland Park Drive, Suite B",Sunland Plaza,El Paso,TX,79912,1-915-581-0314
31538,Shoppes of Mentor,9623 Mentor Avenue,Shoppes of Mentor,Mentor,OH,44060,1-440-354-6277
31539,Alliance Town Center,9561 Sage Meadow Trail,Alliance Town Center,Fort Worth,TX,76177,1-817-750-1400
31540,Uptown Village at Cedar Hill,"305 West FM 1382, Suite 530",Uptown Village at Cedar Hill,Cedar Hill,TX,75104,1-972-291-3587
31541,Alamo Ranch,"5347 West Loop 1604 North, Suite 109",Alamo Ranch,San Antonio,TX,78253,1-210-681-2077
31542,The Terrace,"2220 Hamilton Place Boulevard, Suite 110",The Terrace,Chattanooga,TN,37421,1-423-893-0598
31543,New Hartford Consumer Square,4733 Commercial Drive,New Hartford Consumer Square,New Hartford,NY,13413,1-315-768-7864
31545,Midtown Shopping Center,"1800 McFarland Boulevard East, Suite 522",Midtown Shopping Center,Tuscaloosa,AL,35404,1-205-342-2388
31546,Fremaux Town Center,230 Town Center,Fremaux Town Center,Slidell,LA,70458,1-985-781-8971
31547,Canyon View Marketplace,"632 Market Street, Suite 500",Canyon View Marketplace,Grand Junction,CO,81505,1-970-263-5440
31548,Sherwood Mall,5410 Pacific Avenue,Sherwood Mall,Stockton,CA,95207,1-209-235-1209
31549,Hamilton Town Center,"14002 Hoard Drive, Suite 100",Hamilton Town Center,Noblesville,IN,46060,1-317-770-8531
31550,Countrywood Crossing,2273 North Germantown Parkway,Countrywood Crossing,Cordova,TN,38016,1-901-377-4819
31551,Midland Park Mall,"4511 North Midkiff Road, Suite C01A",Midland Park Mall,Midland,TX,79705,1-432-689-0369
31553,Market Place Square,"720 Jefferson Road, Suite 100",Market Place Square,Rochester,NY,14623,1-585-292-1250
31554,Warwick Center,1350 East Bald Hill Road,Warwick Center,Warwick,RI,2886,1-401-826-3295
31555,Gateway Center,15 Mystic View Road,Gateway Center,Everett,MA,2149,1-617-381-0040
31556,Gresham Station,839 Northwest 12th Avenue,Gresham Station,Gresham,OR,97030,1-503-665-6838
31557,Fox River Mall,"4301 West Wisconsin Avenue, Space 30",Fox River Mall,Appleton,WI,54913,1-920-831-0240
31558,Webster Towne Center,913 Holt Road,Webster Towne Center,Webster,NY,14580,1-585-872-0750
31559,Shoppes at Paradise Isle,"34940 Emerald Coast Parkway, Unit 120",Shoppes at Paradise Isle,Destin,FL,32541,1-850-654-1364
31560,Gateway Center,"1505 University Drive East, Suite 250",Gateway Center,College Station,TX,77840,1-979-595-1000
31563,Market Street at Heathbrook,"4414 Southwest College Road, Suite 1710",Market Street at Heathbrook,Ocala,FL,34474,1-352-237-0163
31564,White Oaks Plaza,2733 Veteran's Parkway,White Oaks Plaza,Springfield,IL,62704,1-217-726-0849
31565,The Shops at Friendly Center,3350 West Friendly Avenue,The Shops at Friendly Center,Greensboro,NC,27410,1-336-299-9495
31566,Boulevard Consumer Square,"1701 Niagara Falls Boulevard, Suite 100",Boulevard Consumer Square,Amherst,NY,14228,1-716-836-0658
31567,Front Range Village,4405 Corbett Drive,Front Range Village,Fort Collins,CO,80525,1-970-266-4949
31568,Merle Hay Mall,"3800 Merle Hay Road, Suite 507",Merle Hay Mall,Des Moines,IA,50310,1-515-276-0410
31569,Loop West,2609 West Osceola Parkway,Loop West,Kissimmee,FL,34741,1-407-846-0149
31570,Brook Highland Plaza,5267 Highway 280,Brook Highland Plaza,Birmingham,AL,35242,1-205-991-1012
31571,Mall of Louisiana,"9330 Mall Of Louisiana Boulevard, Suite 400",Mall of Louisiana,Baton Rouge,LA,70836,1-225-769-2237
31572,Bradley Commons,2058 North State Route 50,Bradley Commons,Bourbonnais,IL,60914,1-815-935-1451
31573,Bridge Street Town Center,"301 The Bridge Street NorthWest, Suite 109",Bridge Street Town Center,Huntsville,AL,35806,1-256-327-8571
31575,Deerfield Towne Center,5145 Deerfield Boulevard,Deerfield Towne Center,Mason,OH,45040,1-513-204-1929
31576,Fairlane Green,3150 Fairlane Drive,Fairlane Green,Allen Park,MI,48101,1-313-749-1470
31577,Tiffany Springs Market Center,9120 Northwest Skyview Avenue,Tiffany Springs Market Center,Kansas City,MO,64154,1-816-741-8779
31578,Regal Court Shopping Center,7467 Youree Drive,Regal Court Shopping Center,Shreveport,LA,71105,1-318-797-2013
31579,Shoppes at Prairie Ridge,"10033 77th Street, Suite 420",Shoppes at Prairie Ridge,Pleasant Prairie,WI,53158,1-262-697-0379
31580,McEver's Corners,"983 Dawsonville Highway, Suite B",McEver's Corners,Gainesville,GA,30501,1-770-535-3636
31581,Weatherford Ridge,"225 Adams Drive, Suite 215",Weatherford Ridge,Weatherford,TX,76086,1-817-594-4634
31582,Southland Mall,6142 South Westnedge Avenue,Southland Mall,Portage,MI,49002,1-269-321-0326
31583,Meridian Towne Center,4886 Marsh Road,Meridian Towne Center,Okemos,MI,48864,1-517-318-0413
31584,The Shoppes at River Crossing,"5080 Riverside Drive, Suite 1200",The Shoppes at River Crossing,Macon,GA,31210,1-478-471-0171
31585,Hampton Village Center,2813 South Rochester Road,Hampton Village Center,Rochester Hills,MI,48307,1-248-853-1538
31586,Westfield Franklin Park Mall,"5001 Monroe Street, Unit S3",Westfield Franklin Park Mall,Toledo,OH,43623,1-419-474-4254
31587,Streets of Brentwood,"2465 Sand Creek Road, Suite 100",Streets of Brentwood,Brentwood,CA,94513,1-925-513-8183
31588,The Shoppes at Gilbert Commons,857 East Baseline Road,The Shoppes at Gilbert Commons,Gilbert,AZ,85233,1-480-813-5985
31589,Oro Valley Marketplace,11875 North Oracle Road,Oro Valley Marketplace,Oro Valley,AZ,85737,1-520-742-8956
31590,Queen Creek Marketplace,21118 South Ellsworth Loop Road,Queen Creek Marketplace,Queen Creek,AZ,85142,1-480-882-3454
31591,Town Center Plaza,7209 Southeast 29th Street,Town Center Plaza,Midwest City,OK,73110,1-405-739-0410
31592,Loma Square,3315 Rosecrans Street,Loma Square,San Diego,CA,92110,1-619-222-0697
31593,Kendall Marketplace,955 Erica Lane,Kendall Marketplace,Yorkville,IL,60560,1-630-553-4927
31594,Centre at Hagerstown,17758 Garland Groh Boulevard,Centre at Hagerstown,Hagerstown,MD,21740,1-301-797-5843
31595,Quarry Market,"255 East Basse Road, Suite 1010",Quarry Market,San Antonio,TX,78209,1-210-824-5031
31596,Providence Town Center,40 Town Center Drive,Providence Town Center,Collegeville,PA,19426,1-610-489-8232
31597,Hammock Landing,"205 Palm Bay Road Northeast, Suite 121",Hammock Landing,West Melbourne,FL,32904,1-321-953-2642
31598,The Pavilion at Port Orange,"5511 South Williamson Boulevard, Suite 201",The Pavilion at Port Orange,Port Orange,FL,32128,1-386-760-0289
31599,Quail Creek Crossing,"3201 Lawrence Road, Suite 200",Quail Creek Crossing,Wichita Falls,TX,76308,1-940-692-1163
31600,Dulles 28,"22000 Dullles Retail Center, Suite 136",Dulles 28,Sterling,VA,20166,1-703-444-4081
31601,Annapolis Harbour Center,2566 Solomons Island Road,Annapolis Harbour Center,Annapolis,MD,21401,1-410-571-1575
31602,Lynncroft Shopping Center,"3120 Evans Street, Suite 105",Lynncroft Shopping Center,Greenville,NC,27834,1-252-215-1090
31603,Airport Center,940 Airport Center Drive,Airport Center,Allentown,PA,18109,1-610-264-1065
31604,Rockford Crossing,6620 East State Street,Rockford Crossing,Rockford,IL,61108,1-815-394-1248
31605,Riverdale Center IV,4249 South Riverdale Road,Riverdale Center IV,Riverdale,UT,84405,1-801-621-4639
31606,Kingsport Pavilion,"2626 East Stone Drive, Suite 130",Kingsport Pavilion,Kingsport,TN,37660,1-423-245-1076
31607,Hammond Square Shopping Center,2026 Hammond Square Drive,Hammond Square Shopping Center,Hammond,LA,70403,1-985-345-2096
31608,Sunset Valley Homestead,"5207 Brodie Lane, Suite 180",Sunset Valley Homestead,Sunset Valley,TX,78745,1-512-891-1581
31609,Chesterfield Commons East,46 THF Boulevard,Chesterfield Commons East,Chesterfield,MO,63005,1-636-534-2828
31610,Asheville Mall,3 South Tunnel Road,Asheville Mall,Asheville,NC,28805,1-828-298-0399
31611,The Markets at Town Center,4860 Big Island Drive,The Markets at Town Center,Jacksonville,FL,32246,1-904-641-6032
31612,Stafford Park,227 Stafford Park Boulevard,Stafford Park,Manahawkin,NJ,8050,1-609-489-0103
31613,Tiger Town,2690 Enterprise Drive,Tiger Town,Opelika,AL,36801,1-334-749-2593
31614,Landstown Commons,"3300 Princess Anne Road, Suite 31",Landstown Commons,Virginia Beach,VA,23456,1-757-368-2089
31616,Palmdale Marketplace,39246 10th Street West,Palmdale Marketplace,Palmdale,CA,93551,1-661-274-4307
31617,Hamburg Pavilion,1956 Pavilion Way,Hamburg Pavilion,Lexington,KY,40509,1-859-232-8947
31618,Highland Grove,10333 Indianapolis Boulevard,Highland Grove,Highland,IN,46322,1-219-924-1318
31619,Bal Harbour Square,1746 North Federal Highway,Bal Harbour Square,Fort Lauderdale,FL,33305,1-954-390-7458
31620,Jacksonville Mall,361 Jacksonville Mall,Jacksonville Mall,Jacksonville,NC,28546,1-910-353-0918
31622,Northwoods Shopping Center,"1742 North Loop 1604, Suite 104",Northwoods Shopping Center,San Antonio,TX,78232,1-210-495-0439
31623,Folsom-Gateway II,2381 Iron Point Road,Folsom-Gateway II,Folsom,CA,95630,1-916-984-7582
31624,Tulsa Hills Shopping Center,7505 South Olympia Avenue West,Tulsa Hills Shopping Center,Tulsa,OK,74132,1-918-447-0917
31625,Broadway Crossing,5510 South Broadway,Broadway Crossing,Tyler,TX,75703,1-903-581-7318
31626,Market Street Flowood,748 Mackenzie Lane,Market Street Flowood,Flowood,MS,39232,1-601-992-7422
31627,Southern Tier Crossing,1520 County Road 64,Southern Tier Crossing,Horseheads,NY,14845,1-607-796-2769
31628,Valley Mall Plaza,1734 East Washington,Valley Mall Plaza,Union Gap,WA,98903,1-509-457-7280
31629,Eastland Mall,1615 East Empire Street,Eastland Mall,Bloomington,IL,61701,1-309-664-5929
31630,Fairmount Fair,3541 West Genesee Street,Fairmount Fair,Syracuse,NY,13219,1-315-468-2156
31631,Park Lane,"8160 Park Lane, Suite 330",Park Lane,Dallas,TX,75231,1-214-363-0638
31632,Plaza at Jordan Landing,"3736 Center Park Drive, Unit 110",Plaza at Jordan Landing,West Jordan,UT,84084,1-801-280-7900
31633,Bergen Town Center,45 West Spring Valley Avenue,Bergen Town Center,Maywood,NJ,7607,1-201-368-0496
31634,River Forest Town Center,7231 Lake Street,River Forest Town Center,River Forest,IL,60305,1-708-366-8604
31635,Harriman Commons,128 Bailey Farm Road,Harriman Commons,Monroe,NY,10950,1-845-783-3544
31636,MacArthur Park Shopping Center,7757 North MacArthur Boulevard,MacArthur Park Shopping Center,Irving,TX,75063,1-972-409-6831
31637,Town & Country Village,"12850 Memorial Drive, Suite 1300",Town & Country Village,Houston,TX,77024,1-713-331-0065
31638,Short Pump Station,"11351 West Broad Street, Suite 181",Short Pump Station,Glen Allen,VA,23060,1-804-360-1284
31639,La Palmera,"5488 South Padre Island Drive, Suite 5002",La Palmera,Corpus Christi,TX,78411,1-361-985-7401
31640,Mall at Barnes Crossing,"1001 Barnes Crossing  Road, Suite 323",Mall at Barnes Crossing,Tupelo,MS,38804,1-662-842-7074
31641,The Promenade,3869 Promenade Parkway B,The Promenade,D'Iberville,MS,39540,1-228-392-1562
31642,Midtown Park,3516 Clemson Boulevard,Midtown Park,Anderson,SC,29621,1-864-226-3357
31643,Mall of Abilene,"4310 Buffalo Gap Road, 31",Mall of Abilene,Abilene,TX,79606,1-325-691-1394
31644,Fairview Center,6621 North Illinois Street,Fairview Center,Fairview Heights,IL,62208,1-618-398-6274
31645,The Maine Mall,366 Maine Mall Road,The Maine Mall,South Portland,ME,4106,1-207-773-7786
31646,The Augusta Marketplace,10 Stephen King Drive,The Augusta Marketplace,Augusta,ME,4330,1-207-629-5422
31648,Cornerstar,"15800 East Briarwood Circle, Unit A",Cornerstar,Aurora,CO,80016,1-303-680-6033
31649,Longview Towne Crossing,"3096 North Eastman Road, Suite 105",Longview Towne Crossing,Longview,TX,75605,1-903-663-8693
31650,Arena Hub Plaza,493 Arena Hub Plaza,Arena Hub Plaza,Wilkes-Barre,PA,18702,1-570-820-6267
31651,Spring Creek Centre,"3835 North Mall Avenue, Suite 2",Spring Creek Centre,Fayetteville,AR,72703,1-479-575-9298
31652,Pilgrim & Oneida St. Shopping,"803 Pilgrim Way, Suite 5",Pilgrim & Oneida St. Shopping,Green Bay,WI,54304,1-920-494-7035
31653,Pinnacle Hills Plaza,"2203 Promenade Boulevard, Suite 20245",Pinnacle Hills Plaza,Rogers,AR,72758,1-479-631-0038
31654,Miller Hill Mall,"1600 Miller Trunk Highway, Suite 414B",Miller Hill Mall,Duluth,MN,55811,1-218-727-2780
31655,Avon Marketplace,380 West Main Street,Avon Marketplace,Avon,CT,6001,1-860-674-1835
31656,Easton Market,3720 Easton Market,Easton Market,Columbus,OH,43219,1-614-473-9146
31657,Roosevelt Collection,1107 South Delano Court East,Roosevelt Collection,Chicago,IL,60605,1-312-583-0554
31658,Polaris Towne Center,1285 Polaris Parkway,Polaris Towne Center,Columbus,OH,43240,1-614-785-0594
31659,Azalea Square,434 Azalea Square Boulevard,Azalea Square,Summerville,SC,29483,1-843-821-4059
31660,Sycamore Plaza,7800 Montgomery Road,Sycamore Plaza,Cincinnati,OH,45236,1-513-793-5100
31661,Richland Marketplace,622 North West End Boulevard,Richland Marketplace,Quakertown,PA,18951,1-215-536-3845
31662,Northridge - Mall 1,4016 East 53rd Street,Northridge - Mall 1,Davenport,IA,52807,1-563-355-2230
31663,Belleview Shores,5284 South Wadsworth Boulevard,Belleview Shores,Littleton,CO,80123,1-303-973-7244
31664,Scharrington Square,2431 West Schaumburg Road,Scharrington Square,Schaumburg,IL,60194,1-847-923-1739
31665,Independence Plaza,"2450 Monarch Drive, Suite 104",Independence Plaza,Laredo,TX,78045,1-956-724-1960
31666,Felch Street Center,12635 Felch Street,Felch Street Center,Holland,MI,49424,1-616-994-0534
31667,Santa Rose Marketplace,2080 Santa Rosa Avenue,Santa Rose Marketplace,Santa Rosa,CA,95407,1-707-542-1042
31668,Casa Paloma,"7131 West Ray Road, Suite 12",Casa Paloma,Chandler,AZ,85226,1-480-753-7076
31669,The Plaza at Buckland Hills,1464  Pleasant Valley Road,The Plaza at Buckland Hills,Manchester,CT,6042,1-860-648-9260
31670,Cottonwood Mall,10000 Coors Boulevard Northwest,Cottonwood Mall,Albuquerque,NM,87114,1-505-792-0834
31671,Regency Square,2442 West Brandon Boulevard,Regency Square,Brandon,FL,33511,1-813-651-2768
31672,Sandusky Pavilion,"4020 Milan Road, Unit 915",Sandusky Pavilion,Sandusky,OH,44870,1-419-621-1345
31673,Boulevard Crossing,2134 East Boulevard Street,Boulevard Crossing,Kokomo,IN,46902,1-765-236-0681
31674,Barracks Road Shopping Center,977 Emmet Street,Barracks Road Shopping Center,Charlottesville,VA,22903,1-434-293-4958
31675,West Market Plaza,3879 Medina Road,West Market Plaza,Akron,OH,44333,1-330-665-5341
31676,Oakland Plaza,560 John R. Road,Oakland Plaza,Troy,MI,48083,1-248-581-0524
31677,Deer Trace I & II Shopping Center,4073 Highway 28,Deer Trace I & II Shopping Center,Sheboygan Falls,WI,53085,1-920-459-8487
31678,University Town Center,1620 24th Avenue Northwest,University Town Center,Norman,OK,73069,1-405-307-9358
31679,River Hills Mall,"1850 Adams Street, Suite 100",River Hills Mall,Mankato,MN,56001,1-507-625-5530
31680,Denton Crossing West,"1800 South Loop 288, Suite 300",Denton Crossing West,Denton,TX,76205,1-940-566-5170
31681,Glynn Isles Market,190 Glynn Isles,Glynn Isles Market,Brunswick,GA,31525,1-912-554-2172
31682,Aventura Commons,21065 Biscayne Boulevard,Aventura Commons,Aventura,FL,33180,1-305-466-1478
31683,Gallatin Center,"2855 North 19th Avenue, Suite C",Gallatin Center,Bozeman,MT,59718,1-406-586-2682
31684,Mall of New Hampshire,1500 South Willow Street,Mall of New Hampshire,Manchester,NH,3103,1-603-623-9147
31685,Northborough Crossing,8106 Shops Way,Northborough Crossing,Northborough,MA,1532,1-508-393-2813
31686,Glendora Marketplace,1229 South Lone Hill Avenue,Glendora Marketplace,Glendora,CA,91740,1-909-592-5393
31687,Bloomingdale Court,362 West Army Trail Road,Bloomingdale Court,Bloomingdale,IL,60108,1-630-307-7130
31688,Houma Crossing,"1779 Martin Luther King Jr Boulevard, Suite 300",Houma Crossing,Houma,LA,70360,1-985-872-3753
31689,Station Park,320 North Station Parkway,Station Park,Farmington,UT,84025,1-801-451-8403
31690,Gaston Mall,415-140 Cox  Road,Gaston Mall,Gastonia,NC,28054,1-704-865-9220
31691,South Bay South,1513 Hawthorne Boulevard,South Bay South,Redondo Beach,CA,90278,1-310-303-3790
31692,Northshore Mall,210 Andover Street,Northshore Mall,Peabody,MA,1960,1-978-531-0246
31693,Red Rock Commons,"15 South River Road, Suite 220",Red Rock Commons,St. George,UT,84790,1-435-673-2180
31694,Treasure Valley Marketplace,16475 North Marketplace Boulevard,Treasure Valley Marketplace,Nampa,ID,83687,1-208-467-0982
31695,White Oak Crossing,165 Shenstone Boulevard,White Oak Crossing,Garner,NC,27529,1-919-662-8268
31696,Columbiana on Park,"320 Harbison Boulevard, Suite C",Columbiana on Park,COLUMBIA,SC,29212,1-803-749-5757
31697,Juban Crossing,"10129 Crossing Way, Suite 410",Juban Crossing,Denham Springs,LA,70726,1-225-791-2946
31698,Keizer Station,6361 Ulali Drive Northeast,Keizer Station,Keizer,OR,97303,1-503-393-2738
31699,Fargo Retail Center,4420 13th Avenue South,Fargo Retail Center,Fargo,ND,58103,1-701-281-4831
31700,Baytowne Square,2023 North Prospect Avenue,Baytowne Square,Champaign,IL,61822,1-217-355-5234
31701,The Orchard at Saddleback,23608 El Toro Road,The Orchard at Saddleback,Lake Forest,CA,92630,1-949-470-9531
31702,Stirling Bossier,2745 Beene Boulevard,Stirling Bossier,Bossier City,LA,71111,1-318-746-2790
31703,The Marketplace,"9000 Ming Avenue, Suite L2",The Marketplace,Bakersfield,CA,93311,1-661-664-1402
31704,Centennial Commons,7680 Polo Grounds Boulevard,Centennial Commons,Memphis,TN,38125,1-901-751-9786
31705,Connecticut Post Mall,1201 Boston Post Road,Connecticut Post Mall,Milford,CT,6460,1-203-876-4766
31706,New Market Square Shopping Center,"2441 North Maize Road, # 2101",New Market Square Shopping Center,Wichita,KS,67205,1-316-729-5566
31707,Lycoming Crossings Shopping Center,350 South Lycoming Mall Road,Lycoming Crossings Shopping Center,Muncy,PA,17756,1-570-546-2361
31708,River Oaks Shopping Center,24235 Magic Mountain Parkway,River Oaks Shopping Center,Valencia,CA,91355,1-661-288-2219
31709,Woodhaven Plaza,19255 West Road,Woodhaven Plaza,Woodhaven,MI,48183,1-734-676-4357
31710,Red Oak Village,"1050 McKinley Place, Suite 120",Red Oak Village,San Marcos,TX,78666,1-512-392-3308
31711,The Forum at Grandview,175 Grandview Boulevard,The Forum at Grandview,Madison,MS,39110,1-601-856-8882
31712,Springdale Mall,"3250 Airport Boulevard, Suite E-32",Springdale Mall,Mobile,AL,36606,1-251-450-2362
31713,The Shops at Boardman Park,403 Boardman Poland Road,The Shops at Boardman Park,Boardman,OH,44512,1-330-629-6276
31714,Eastgate Shopping Center,1405 SOM Center Road,Eastgate Shopping Center,Mayfield Heights,OH,44124,1-440-683-9015
31715,Eastgate Plaza Shopping Center,"8141 East Kellogg Drive, Suite 138",Eastgate Plaza Shopping Center,Wichita,KS,67207,1-316-684-1116
31716,Glenbrook North Shopping Center,1032 Glenbrook Way,Glenbrook North Shopping Center,Hendersonville,TN,37075,1-615-824-6567
31717,Rego Center,"61-35 Junction Boulevard, Mailbox # A13",Rego Center,Rego Park,NY,11374,1-718-699-9004
31718,Settler Ridge,1310 Settler Ridge Center Drive,Settler Ridge,Pittsburgh,PA,15205,1-412-787-8780
31719,Novi Town Center,26110 Ingersol Drive,Novi Town Center,Novi,MI,48375,1-248-449-5221
31720,Florence Square,7673 Mall Road,Florence Square,Florence,KY,41042,1-859-282-8561
31721,Merchants Walk,"1311 Johnson Ferry Road, Suite 556",Merchants Walk,Marietta,GA,30068,1-770-578-3352
31722,Millenia Crossing,4048 Eastgate Drive,Millenia Crossing,Orlando,FL,32839,1-407-351-9894
31723,Frederick Crossing,7310 Guilford Drive,Frederick Crossing,Frederick,MD,21704,1-301-662-0852
31724,Greenwood Mall,"2625 Scottsville Road, Suite 340",Greenwood Mall,Bowling Green,KY,42104,1-270-842-3704
31725,Firewheel Town Center,180 Cedar Sage Drive,Firewheel Town Center,Garland,TX,75040,1-972-495-0100
31726,El Paseo de Saratoga,600 El Paseo de Saratoga,El Paseo de Saratoga,San Jose,CA,95130,1-408-370-7687
31727,Madrona Park,18140 Northwest Evergreen Parkway,Madrona Park,Beaverton,OR,97006,1-503-466-0206
31728,Chimney Rock Shopping Center,6317 East Highway 191,Chimney Rock Shopping Center,Odessa,TX,79762,1-432-362-0287
31729,Webster Square,258-9 Daniel Webster Highway,Webster Square,Nashua,NH,3060,1-603-888-5698
31730,Winchester Station,2430 South Pleasant Valley Road,Winchester Station,Winchester,VA,22601,1-540-662-1450
31731,Northgate Marketplace,25 Rossanley Drive,Northgate Marketplace,Medford,OR,97501,1-541-773-2749
31732,Beavercreek Pavillion,"2720 Towne Drive, Suite 450",Beavercreek Pavillion,Beavercreek,OH,45431,1-937-429-9744
31733,Rancho Santa Margarita Town Center,30682 Santa Margarita Parkway,Rancho Santa Margarita Town Center,Rancho Santa Margarita,CA,92688,1-949-635-9301
31734,Sunset Mall,"4001 Sunset Drive, Suite 1226",Sunset Mall,San Angelo,TX,76904,1-325-949-0948
31735,Adams Dairy Landing Shopping Center,1260 Northeast Coronado Drive,Adams Dairy Landing Shopping Center,Blue Springs,MO,64014,1-816-228-2268
31736,Bear Creek Village Shopping Center,17170 NE Redmond Way,Bear Creek Village Shopping Center,Redmond,WA,98052,1-425-497-9117
31737,Shoppes at Stadium,221 North Stadium Boulevard,Shoppes at Stadium,Columbia,MO,65203,1-573-445-5831
31738,Westlake Shopping Center,2601 West Lake Street,Westlake Shopping Center,Peoria,IL,61615,1-309-681-4604
31739,Hall Road Crossing,13955 Hall Road,Hall Road Crossing,Shelby Township,MI,48315,1-586-566-1548
31740,Owensboro Towne Center,5241 Frederica Street,Owensboro Towne Center,Owensboro,KY,42301,1-270-683-3760
31741,Lakes Crossing,5711-A  South Harvey Street,Lakes Crossing,Norton Shores,MI,49444,1-231-798-2371
31742,Jubilee Square,"6850 U.S. Highway 90, Suite 11",Jubilee Square,Daphne,AL,36526,1-251-621-9512
31743,Pecanland Plaza,"4429 Pecanland Mall Drive, Suite 8",Pecanland Plaza,Monroe,LA,71203,1-318-361-0984
31744,Interstate Shopping Center,1255 Route 17 South,Interstate Shopping Center,Ramsey,NJ,7446,1-201-327-3018
31745,Towne Center at Watertown,21835 Towne Center Drive,Towne Center at Watertown,Watertown,NY,13601,1-315-785-1013
31746,Columbia Center,"1321 North Columbia Center Boulevard, Suite A01",Columbia Center,Kennewick,WA,99336,1-509-783-1083
31747,Fischer Marketplace Shopping Center,"14929 Florence Trail, Suite 100",Fischer Marketplace Shopping Center,Apple Valley,MN,55124,1-952-891-2450
31748,Evansville Pavilions,"6601 East Lloyd Expressway, Suite 1A",Evansville Pavilions,Evansville,IN,47715,1-812-401-8430
31749,Northpark  Mall,"101 North Rangeline Road, Suite 275",Northpark  Mall,Joplin,MO,64801,1-417-627-0089
31750,Bloomfield Town Square,2161 South Telegraph Road,Bloomfield Town Square,Bloomfield Hills,MI,48302,1-248-858-2611
31751,Cache Valley Plaza,"1050 North Main Street, Suite 110",Cache Valley Plaza,Logan,UT,84341,1-435-753-7970
31752,Summerhill Square,601 Route 18 South,Summerhill Square,East Brunswick,NJ,8816,1-732-432-0459
31753,Shops at the Galleria,"12909 Shops Parkway, Suite 400",Shops at the Galleria,Bee Cave,TX,78738,1-512-263-7085
31754,Desert Crossing Shopping Center,"72-369 Highway 111, Suite 100",Desert Crossing Shopping Center,Palm Desert,CA,92260,1-760-346-8029
31755,Trinity Valley Shopping Center,"2660 North Josey Lane, Suite 250",Trinity Valley Shopping Center,Carrollton,TX,75007,1-972-242-2876
31756,West Valley Shopping Center,3279 Tittabawasse Road,West Valley Shopping Center,Saginaw,MI,48604,1-989-799-1465
31757,Fort Gratiot #523,"4715 24th Avenue, Suite 300",Fort Gratiot #523,Fort Gratiot,MI,48059,1-810-385-6209
31758,Kennedy Mall,"555 JFK Road, Unit 592",Kennedy Mall,Dubuque,IA,52002,1-563-582-5087
31759,Schulman Crossing,1670 Larue Road,Schulman Crossing,Garden City,KS,67846,1-620-276-3734
31760,Market Place at Braintree,380 Grossman Drive,Market Place at Braintree,Braintree,MA,2184,1-781-356-1792
31761,The Shops at Waldorf Center,2945 Festival Way,The Shops at Waldorf Center,Waldorf,MD,20601,1-301-396-4579
31762,The Forum on Peachtree Parkway,"5145 Peachtree Parkway, # 440",The Forum on Peachtree Parkway,Peachtree Corners,GA,30092,1-770-368-0277
31763,Elmwood Shopping Center,"1126 South Clearview Parkway, Suite A",Elmwood Shopping Center,Harahan,LA,70123,1-504-731-6628
31764,Augusta Exchange,257 Robert C. Daniels Jr. Parkway,Augusta Exchange,Augusta,GA,30909,1-706-736-5202
31765,Clearwater Mall,2683 Gulf To Bay Boulevard,Clearwater Mall,Clearwater,FL,33759,1-727-724-6498
31766,Metro Crossings,"3502 Metro Drive, Suite 100",Metro Crossings,Council Bluffs,IA,51501,1-712-366-8093
31767,River Chase Shopping Center,69276 Highway 21,River Chase Shopping Center,Covington,LA,70433,1-985-871-8853
31768,Crossroads Annex,609 Settlers Trace Boulevard,Crossroads Annex,Lafayette,LA,70508,1-337-981-6815
31769,South Pointe Pavilions,"3120 Pine Lake Road, Suite P",South Pointe Pavilions,Lincoln,NE,68516,1-402-423-0586
31770,Fairway Marketplace,5696 Fairmont Parkway,Fairway Marketplace,Pasadena,TX,77505,1-281-991-1890
31771,Marketplace at Seminole Towne,1751 WP Ball Boulevard,Marketplace at Seminole Towne,Sanford,FL,32771,1-407-321-0854
31772,Pineapple Commons Shopping Center,2455 Norhtwest Federal Highway,Pineapple Commons Shopping Center,Stuart,FL,34994,1-772-232-4925
31773,Temple Towne Center,"2112 Southwest HK Dodgen Loop, Suite 143A",Temple Towne Center,Temple,TX,76504,1-254-771-2079
31774,The Orchard Town Center,14521 Orchard Parkway,The Orchard Town Center,Westminster,CO,80023,1-303-452-3634
31775,Pirates Plaza,4067 Miller Road,Pirates Plaza,Flint,MI,48507,1-810-230-0010
31776,River Valley Mall,"1635 River Valley Circle South, Suite 101",River Valley Mall,Lancaster,OH,43130,1-740-654-2704
31777,Town Square Mall,2417 Vestal Parkway East,Town Square Mall,Vestal,NY,13850,1-607-797-3069
31778,The Gallery at Westbury Plaza,990 Old Country Road,The Gallery at Westbury Plaza,Garden City,NY,11530,1-516-794-7416
31779,Nut Tree Plaza,1641-C East Monte Vista Avenue,Nut Tree Plaza,Vacaville,CA,95688,1-707-455-8369
31780,The Fountains at Farah,"8889 Gateway Boulevard West, Suite 560",The Fountains at Farah,El Paso,TX,79925,1-915-595-6458
31781,Camino Real Marketplace,7000 Marketplace Drive,Camino Real Marketplace,Goleta,CA,93117,1-805-685-2060
31782,Hanover Crossings Shopping Center,411 Eisenhower Drive,Hanover Crossings Shopping Center,Hanover,PA,17331,1-717-632-0920
31783,Creeks at Virginia Center,9930 Brook Road,Creeks at Virginia Center,Glen Allen,VA,23059,1-804-264-7984
31784,Florence Mall,1945 West Palmetto Street,Florence Mall,Florence,SC,29501,1-843-662-3097
31785,University Town Center,1010 Giant Street,University Town Center,Morgantown,WV,26501,1-304-284-0005
31786,Fairplain Plaza,1000 East Fairplain Drive,Fairplain Plaza,Benton Harbor,MI,49022,1-269-934-9261
31787,Summit Woods Crossing Shopping,1664 Northwest Chipman Road,Summit Woods Crossing Shopping,Lee's Summit,MO,64081,1-816-524-5427
31788,Rainer View Marketplace,16908 Meridian East,Rainer View Marketplace,Puyallup,WA,98375,1-253-445-6932
31789,Village at Leesburg,"1606 Village Market Boulevard, Suite 130",Village at Leesburg,Leesburg,VA,20175,1-571-258-1027
31790,Springfield Mall,1250 Baltimore Pike,Springfield Mall,Springfield,PA,19064,1-610-328-1657
31791,Lincoln Square,120 Lincoln Square,Lincoln Square,Arlington,TX,76011,1-817-459-2550
31792,Settler's Market at New Town,"5225 Settlers Market Boulevard, #170",Settler's Market at New Town,Williamsburg,VA,23188,1-757-220-8830
31793,600 W 300 N,600 W 300 N,,Warsaw,IN,46582,1-574-267-5630
31794,The Market Shoppes,2401 6th Avenue Southeast,The Market Shoppes,Decatur,AL,35601,1-256-350-1810
31795,Dudley Farms Plaza,216 RHL Boulevard,Dudley Farms Plaza,Charleston,WV,25309,1-304-744-5459
31796,Westfield Culver City,"6000 Sepulveda Boulevard, Suite 2200",Westfield Culver City,Culver City,CA,90230,1-310-390-1420
31797,Northville Retail Center,17615 Haggerty Road,Northville Retail Center,Northville,MI,48167,1-248-449-5367
31798,Bradford Plaza,601 North Main Street,Bradford Plaza,Stillwater,OK,74075,1-405-372-7142
31799,Stow Community Center,4286 Kent Road,Stow Community Center,Stow,OH,44224,1-330-686-2465
31800,Cypresswood Court,"19507 North Freeway, Suite 600",Cypresswood Court,Spring,TX,77388,1-281-528-0024
31801,Shops at Bella Terra,5458 West Grand Parkway South,Shops at Bella Terra,Richmond,TX,77406,1-832-595-0546
31802,280 Metro Center,119 Colma Boulevard,280 Metro Center,Colma,CA,94014,1-650-755-5971
31803,Huntington Shopping Center,350 Route 110,Huntington Shopping Center,Huntington Station,NY,11746,1-631-271-2817
31804,Oaks Square,6843 West Newberry Road,Oaks Square,Gainesville,FL,32605,1-352-333-0552
31805,Brazos Town Center II,23735 Brazos Town Crossing,Brazos Town Center II,Rosenberg,TX,77471,1-832-595-8944
31806,Market Square at Arden Fair,1785 Arden Way,Market Square at Arden Fair,Sacramento,CA,95815,1-916-929-2912
31807,Uptown Solon,"6025 Kruse Drive, Suite 160",Uptown Solon,Solon,OH,44139,1-440-248-5618
31808,Boise Towne Plaza,542 North Milwaukee,Boise Towne Plaza,Boise,ID,83704,1-208-375-7472
31809,Monte Vista Crossings,2841 Countryside Drive,Monte Vista Crossings,Turlock,CA,95380,1-209-664-1725
31810,Pine Ridge Square,4601 North University Drive,Pine Ridge Square,Coral Springs,FL,33067,1-954-757-6981
31811,Rib Mountain # 577,3555 Rib Mountain Drive,Rib Mountain # 577,Rib Mountain,WI,54401,1-715-241-0089
31812,Westwinds of Boca,9882 Glades Road,Westwinds of Boca,Boca Raton,FL,33434,1-561-482-9050
31813,Tracy Pavilion II,2475 North Naglee Road,Tracy Pavilion II,Tracy,CA,95304,1-209-832-7361
31814,Centerpointe Mall,3541 28th Street Southeast,Centerpointe Mall,Grand Rapids,MI,49512,1-616-285-7024
31815,Tower Shops,1950 South University Drive,Tower Shops,Davie,FL,33324,1-954-916-0433
31816,Gravois Bluffs II,189 Gravois Bluffs Plaza Drive,Gravois Bluffs II,Fenton,MO,63026,1-636-326-1486
31817,Westfield Parkway,315 Parkway Plaza,Westfield Parkway,El Cajon,CA,92020,1-619-588-1218
31818,Grand Traverse Crossing,2556 Crossing Circle Drive,Grand Traverse Crossing,Traverse City,MI,49684,1-231-941-7280
31819,Florissant # 585,2419 North Highway 67,Florissant # 585,Florissant,MO,63033,1-314-921-2834
31820,Preston Towne Crossing,"2400 Preston Road, Suite 300",Preston Towne Crossing,Plano,TX,75093,1-972-596-2839
31821,South Point,1560 Highway 20 West,South Point,McDonough,GA,30253,1-770-898-9947
31822,Westfield Mission Valley West,1072 Camino del Rio North,Westfield Mission Valley West,San Diego,CA,92108,1-619-220-0597
31823,Holly Springs Town Center,124 Grand Hill Place,Holly Springs Town Center,Holly Springs,NC,27540,1-919-557-0167
31824,Belgate,"8150 Ikea Boulevard, Suite 5",Belgate,Charlotte,NC,28262,1-704-494-4138
31825,Shoppes at Fox River,"1160 West Sunset Drive, Suite 134",Shoppes at Fox River,Waukesha,WI,53189,1-262-574-0387
31826,Silver Lake,450 West Wilbur Avenue,Silver Lake,Coeur D'Alene,ID,83815,1-208-762-0776
31827,Edgewater on Monterey Bay Shop,2080 California Avenue,Edgewater on Monterey Bay Shop,Sand City,CA,93955,1-831-393-9397
31828,Port Chester Shopping Center,445 Boston Post Road,Port Chester Shopping Center,Port Chester,NY,10573,1-914-937-1430
31829,Bangor Parkade,482 B-2 Stillwater Avenue,Bangor Parkade,Bangor,ME,4401,1-207-941-1406
31830,Cordova Commons,1650 Airport Boulevard,Cordova Commons,Pensacola,FL,32504,1-850-476-6211
31831,Marina Pacifica,6312 East Pacific Coast Highway,Marina Pacifica,Long Beach,CA,90803,1-562-795-6780
31832,Northgate Mall,9651 Colerain Avenue,Northgate Mall,Cincinnati,OH,45251,1-513-245-1602
31833,The Crossings at Fox Run,45 Gosling Road,The Crossings at Fox Run,Newington,NH,3801,1-603-431-4498
31834,Primrose Marketplace,3434 South Glenstone Avenue,Primrose Marketplace,Springfield,MO,65804,1-417-877-0108
31835,Bucktown,3160 44th Street Southwest,Bucktown,Grandville,MI,49418,1-616-534-7739
31836,Waugh Chapel Towne Centre,"1410 South Main Chapel Way, Suite 108",Waugh Chapel Towne Centre,Gambrills,MD,21054,1-410-451-0758
31837,Cox Creek Shopping Center,388 Cox Creek Parkway,Cox Creek Shopping Center,Florence,AL,35630,1-256-764-9323
31838,Shops at Rossmoor,12339 Seal Beach Boulevard,Shops at Rossmoor,Seal Beach,CA,90740,1-562-936-0077
31839,The Mayfair Collection,"11500 Burleigh Street, Space C",The Mayfair Collection,Wauwatosa,WI,53222,1-414-258-6581
31840,East Washington Place,"401 Kenilworth Drive, Suite 520",East Washington Place,Petaluma,CA,94952,1-707-763-3074
31841,Shops at Lyndale,1050 West 78th Street,Shops at Lyndale,Richfield,MN,55423,1-612-869-0150
31842,Valley View Mall,"4802 Valley View Boulevard, Suite LF248",Valley View Mall,Roanoke,VA,24012,1-540-561-0809
31843,Westgate Shopping Center,1506 West O. Ezell Boulevard,Westgate Shopping Center,Spartanburg,SC,29301,1-864-595-3682
31844,Midtowne,"207 North University Avenue, Suite 170",Midtowne,Little Rock,AR,72205,1-501-660-4096
31845,Oakwood Mall,"4800 Golf Road, Suite 213",Oakwood Mall,Eau Claire,WI,54701,1-715-831-0973
31846,Lloyd Center,1241 Lloyd Center,Lloyd Center,Portland,OR,97232,1-503-281-6290
31847,DeKalb Market Square,2064 Sycamore Road,DeKalb Market Square,DeKalb,IL,60115,1-815-748-0990
31848,Plaza at the Border,3951 Camino de la Plaza,Plaza at the Border,San Ysidro,CA,92173,1-619-662-1535
31849,PGA Plaza,2568 PGA Boulevard,PGA Plaza,Palm Beach Gardens,FL,33410,1-561-625-9861
31850,Rivertowns Square,16 Lawrence Street,Rivertowns Square,Dobbs Ferry,NY,10522,1-914-591-4539
31851,Bricktown Center,245 Bricktown Way,Bricktown Center,Staten Island,NY,10309,1-718-554-4634
31852,Centre at River Oaks,3025 Kirby Drive,Centre at River Oaks,Houston,TX,77098,1-713-807-7959
31853,Lisbon Landing,"160 River Road, Suite A-140",Lisbon Landing,Lisbon,CT,6351,1-860-376-4288
31854,Fashion Island Shopping Center,427 Newport Center Drive,Fashion Island Shopping Center,Newport Beach,CA,92660,1-949-640-0726
31855,Millennium Park,13224 Middlebelt  Road,Millennium Park,Livonia,MI,48150,1-734-425-2460
31856,Carillon Square I,303 East University Parkway,Carillon Square I,Orem,UT,84058,1-801-225-1539
31857,Clifton Towne Square,225 Allwood Road,Clifton Towne Square,Clifton,NJ,7012,1-973-777-1066
31858,Hilton Head Village,"1460 Fording Island Road, #160",Hilton Head Village,Bluffton,SC,29910,1-843-815-2073
31859,Everett Mall,"1402 Southeast Everett Mall Way, Suite 510",Everett Mall,Everett,WA,98208,1-425-265-7600
31860,Arborland Center,3527 Washtenaw Avenue,Arborland Center,Ann Arbor,MI,48104,1-734-477-0150
31861,East Town Plaza,2185 Zeier Road,East Town Plaza,Madison,WI,53704,1-608-244-3983
31862,West Towne Mall,7323 West Towne Way,West Towne Mall,Madison,WI,53719,1-608-828-5883
31863,Stonebridge at Potomac Town Center,"15000 Potomac Town Place, Suite 130",Stonebridge at Potomac Town Center,Woodbridge,VA,22191,1-703-878-1107
31864,Lake Worth Towne Crossing,6612 Lake Worth Boulevard,Lake Worth Towne Crossing,Lake Worth,TX,76135,1-817-238-2142
31865,The Pinnacle at Turkey Creek,11233 Parkside Drive,The Pinnacle at Turkey Creek,Knoxville,TN,37934,1-865-966-7222
31866,1619 Walnut Street,"1619 Walnut Street, Floor 1",1619 Walnut Street,Philadelphia,PA,19103,1-215-640-9602
31867,The Commons,316 Retail Commons Parkway,The Commons,Martinsburg,WV,25403,1-304-267-9578
31868,Branson Shoppes Development Co,1033 Branson Hills Parkway,Branson Shoppes Development Co,Branson,MO,65616,1-417-336-2002
31869,Clovis Crossing,1315 Herndon Avenue,Clovis Crossing,Clovis,CA,93611,1-559-325-6009
31870,The Marketplace at Hanford,168 North 12th Avenue,The Marketplace at Hanford,Hanford,CA,93230,1-559-587-9433
31871,Alameda South Shore Center,2245 South Shore Center,Alameda South Shore Center,Alameda,CA,94501,1-510-864-4031
31872,River Landing,"713 Winfield Dunn Parkway, #4",River Landing,Sevierville,TN,37876,1-865-908-9890
31873,The Crossings of Spring Hill,1028 Crossings Boulevard,The Crossings of Spring Hill,Spring Hill,TN,37174,1-931-486-3356
31874,Epps Bridge Centre,"1791 Oconee Connector, Suite 140",Epps Bridge Centre,Athens,GA,30606,1-706-227-8930
31875,Q95 Plaza,11860 West 95th Street,Q95 Plaza,Overland Park,KS,66214,1-913-888-0397
31876,Village Park Plaza,2009 East Greyhound Pass,Village Park Plaza,Carmel,IN,46033,1-317-844-5818
31877,Aspen Square,6403 West 135th Street,Aspen Square,Overland Park,KS,66223,1-913-239-0802
31878,Cross Hill Market,"702 Crosshill Road, Suite 300-C",Cross Hill Market,Columbia,SC,29205,1-803-790-8009
31879,Bayshore Mall,"3300 Broadway, Suite 15",Bayshore Mall,Eureka,CA,95501,1-707-441-9403
31880,Bayshore Town Center,"5654 North Bayshore Drive, Suite F-118",Bayshore Town Center,Glendale,WI,53217,1-414-332-3150
31881,Carson Valley Plaza,"911 Topsy Lane, Suite 228",Carson Valley Plaza,Carson City,NV,89705,1-775-267-1176
31882,Napa Crossing at Olivieri Corn,1725 Trancas Street,Napa Crossing at Olivieri Corn,Napa,CA,94558,1-707-224-1117
31883,East Peoria Downtown,470 West Washington Street,East Peoria Downtown,East Peoria,IL,61611,1-309-698-7961
31884,The Block,43806 Pacific Commons Boulevard,The Block,Fremont,CA,94538,1-510-445-1830
31885,The Centre at Copperfield,7036 Highway 6 North,The Centre at Copperfield,Houston,TX,77095,1-281-345-7708
31886,Creekside Town Center,221 Creekside Crossing,Creekside Town Center,New Braunfels,TX,78130,1-830-625-5718
31887,Great Northern Plazas,"25907 Brookpark Road, Unit 16",Great Northern Plazas,North Olmsted,OH,44070,1-440-716-1025
31888,The Promenade at Brentwood,10 Brentwood Promenade Court,The Promenade at Brentwood,Brentwood,MO,63144,1-314-918-1859
31889,The Collection at Riverpark,690 Collection Boulevard,The Collection at Riverpark,Oxnard,CA,93036,1-805-981-8725
31890,Indian Mound Mall,"771 South 30th Street Store, #353",Indian Mound Mall,Heath,OH,43056,1-740-522-8167
31891,The Commons (Phase I),2721 North Salisbury Boulevard,The Commons (Phase I),Salisbury,MD,21801,1-443-260-1725
31892,Woodward Commercial Center,27844 Woodward Avenue,Woodward Commercial Center,Royal Oak,MI,48067,1-248-399-1081
31893,Freehold Raceway Mall,"3710 Route 9, Suite B100",Freehold Raceway Mall,Freehold,NJ,7728,1-732-577-8373
31894,Patriot Place,386 Patriot Place,Patriot Place,Foxborough,MA,2035,1-508-698-5293
31895,Howell Commons,4787 US Highway 9,Howell Commons,Howell,NJ,7731,1-732-370-0481
31896,The Gateway Center,16 South Halsted Street,The Gateway Center,Chicago,IL,60661,1-312-243-0411
31897,Eastvale Gateway II,"12423 Limonite Avenue, Suite 100",Eastvale Gateway II,Eastvale,CA,91752,1-951-681-0360
31898,Plaza Santa Fe,3513 Zafarano Boulevard,Plaza Santa Fe,Santa Fe,NM,87507,1-505-424-3650
31899,Lewis Crossing,1278 South Amity Road,Lewis Crossing,Conway,AR,72032,1-501-504-2533
31900,Blackmore Marketplace,465 Newport Road,Blackmore Marketplace,Casper,WY,82609,1-307-234-9069
31901,Skyway Regional Shopping Center,"2005 Cromwell Dixon Lane, Suite 103",Skyway Regional Shopping Center,Helena,MT,59602,1-406-449-2335
31902,Harper Court,5228 South Lake Park Avenue,Harper Court,Chicago,IL,60615,1-773-947-9066
31903,Crossroads Center at Bailey's,5860 Leesburg Pike,Crossroads Center at Bailey's,Falls Church,VA,22041,1-703-379-3827
31904,Southaven Towne Center,6554 Towne Center Crossing,Southaven Towne Center,Southaven,MS,38671,1-662-349-0684
31906,Hawthorn Hills Square,"700 North Milwaukee Avenue, Suite 117",Hawthorn Hills Square,Vernon Hills,IL,60061,1-847-549-1686
31907,Lima Center,"2720 Elida Road, Suite 180",Lima Center,Lima,OH,45805,1-419-223-1053
31908,Empire East Mall,"3800 South Louise Avenue, #304A",Empire East Mall,Sioux Falls,SD,57106,1-605-362-5765
31909,Ontario Towne Square,"2279 Walker Lake Road, Suite 100",Ontario Towne Square,Ontario,OH,44903,1-419-747-2065
31911,Columbus Village Entertainment,"4485 Virginia Beach Boulevard, Suite B5",Columbus Village Entertainment,Virginia Beach,VA,23462,1-757-499-4681
31912,Lawton Town Center,295 Northwest 2nd Street,Lawton Town Center,Lawton,OK,73507,1-580-354-9027
31913,Governor's Marketplace,1554 Govenor's Square Boulevard,Governor's Marketplace,Tallahassee,FL,32301,1-850-402-9527
31914,Park West Village,2116 Village Market Place,Park West Village,Morrisville,NC,27560,1-919-463-0522
31915,Jess Ranch Marketplace,18821 Bear Valley Road,Jess Ranch Marketplace,Apple Valley,CA,92308,1-760-240-6193
31916,Issaquah Highlands Grand Ridge,1480 Highlands Drive Northeast,Issaquah Highlands Grand Ridge,Issaquah,WA,98029,1-425-427-0508
31917,Southern Pines Village,174 Brucewood Road,Southern Pines Village,Southern Pines,NC,28387,1-910-246-2410
31918,Crystal Coast Plaza,"5160 US Highway 70 West, Suite 100A",Crystal Coast Plaza,Morehead City,NC,28557,1-252-222-4301
31919,Parkway Shops,"14964 Max Leggett Parkway, Suite 404",Parkway Shops,Jacksonville,FL,32218,1-904-696-6933
31920,Azalea Regional Shopping Center,4681 Firestone Boulevard,Azalea Regional Shopping Center,Southgate,CA,90280,1-323-569-1735
31921,Toys Center,580 Francisco Boulevard West,Toys Center,San Rafael,CA,94901,1-415-256-9882
31922,Jackson Crossing,1136 Jackson Crossing Avenue,Jackson Crossing,Jackson,MI,49202,1-517-789-9353
31923,Trader Joes Plaza,263 Patriot Lane,Trader Joes Plaza,State College,PA,16803,1-814-867-1805
31924,Westfield Meriden,"470 Lewis Avenue, #61",Westfield Meriden,Meriden,CT,6451,1-203-634-6694
31925,Shiloh Crossing,915 Shiloh Crossing Boulevard,Shiloh Crossing,Billings,MT,59102,1-406-656-2189
31926,Alpine Crossings,2440 M32 West,Alpine Crossings,Gaylord,MI,49735,1-989-705-2127
31927,Wallace  Commons,1445 Klumac Road,Wallace  Commons,Salisbury,NC,28147,1-704-638-6068
31928,Sunrise Promenade,5252 Sunrise Highway,Sunrise Promenade,Massapequa Park,NY,11762,1-516-541-4670
31929,Howland Commons,2106 Niles-Cortland Road Southeast,Howland Commons,Warren,OH,44484,1-330-505-9751
31930,The Shops at Canton Crossing,3541 Boston Street,The Shops at Canton Crossing,Baltimore,MD,21224,1-410-327-0891
31931,TownGate Shopping Center,"12625 Frederick Avenue, Suite G-1",TownGate Shopping Center,Moreno Valley,CA,92553,1-951-653-7394
31932,Oakwood Center,"197 Westbank Expressway, Suite 1330",Oakwood Center,Gretna,LA,70053,1-504-365-8716
31933,Magnolia Marketplace,"2900 South Claiborne Avenue, Suite 400",Magnolia Marketplace,New Orleans,LA,70125,1-504-891-4323
31934,The Shoppes at Grayhawk,14945 Evans Plaza,The Shoppes at Grayhawk,Omaha,NE,68116,1-402-493-6626
31935,Arbor Place Mall,1520 Arbor Place Mall,Arbor Place Mall,Douglasville,GA,30135,1-770-949-3149
31936,The Marketplace at Delta Towns,333A North Marketplace Boulevard,The Marketplace at Delta Towns,Lansing,MI,48917,1-517-622-1521
31937,Newport Pavilion,154 Pavilion Parkway,Newport Pavilion,Newport,KY,41071,1-859-261-0983
31938,University Mall,"1245 East Main, Suite A-31",University Mall,Carbondale,IL,62901,1-618-351-7072
31939,Marquette # 705,3570 US 41 West,Marquette # 705,Marquette,MI,49855,1-906-225-0166
31940,Colonial Plaza,2654 East Colonial Drive,Colonial Plaza,Orlando,FL,32803,1-407-897-8543
31941,Winrock Town Center,"2100 Louisiana Boulevard Northeast, 320",Winrock Town Center,Albuquerque,NM,87110,1-505-872-8601
31942,Jantzen Beach,1500 North Tomahawk Island Drive,Jantzen Beach,Portland,OR,97217,1-503-283-7059
31943,River Trace Shopping Center,524 East Meighan Boulevard,River Trace Shopping Center,Gadsden,AL,35903,1-256-547-8274
31944,Pacheco Pass Center,"950 Renz Lane, Suite 10",Pacheco Pass Center,Gilroy,CA,95020,1-408-842-4759
31945,Packwood Creek West Shopping Center,4023 South Mooney Boulevard,Packwood Creek West Shopping Center,Visalia,CA,93277,1-559-740-0568
31946,Cumberland Mall,3849 South Delsea Drive,Cumberland Mall,Vineland,NJ,8360,1-856-825-5860
31947,Belden Park Crossings,5522 Dressler Road Northwest,Belden Park Crossings,Canton,OH,44720,1-330-244-8752
31948,Westfield South Shore Mall,1701 Sunrise Highway,Westfield South Shore Mall,Bay Shore,NY,11706,1-631-666-0706
31950,Muncie Plaza,1020 East Princeton Avenue,Muncie Plaza,Muncie,IN,47303,1-765-282-1344
31951,Seabridge Square,1783 US HIGHWAY 1 South,Seabridge Square,St. Augustine,FL,32084,1-904-819-0498
31952,Shops at Atlas Park,71 - 03 80th Street,Shops at Atlas Park,Glendale,NY,11385,1-718-326-4968
31953,Rushmore Crossing,1717 Eglin Street,Rushmore Crossing,Rapid City,SD,57701,1-605-342-8453
31954,Max's Place,34 Spencer Plain Road,Max's Place,Old Saybrook,CT,6475,1-860-399-1203
31955,Commonwealth Shopping Center,4632 Commonwealth Center Parkway,Commonwealth Shopping Center,Midlothian,VA,23112,1-804-744-1131
31956,100 Oaks,"719 Thompson Lane, Unit LA 2, Suite 6",100 Oaks,Nashville,TN,37204,1-615-385-2897
31957,The Plaza at Imperial Valley,"508 East Danenberg Drive, Suite 1",The Plaza at Imperial Valley,El Centro,CA,92243,1-760-353-1745
31958,The Crossing at Smithfield,"371 Putnam Pike, Suite 8340",The Crossing at Smithfield,Smithfield,RI,2917,1-401-233-8960
31959,The Shoppes at North Village,"5201 North Belt Highway, Suite 127",The Shoppes at North Village,St. Joseph,MO,64506,1-816-279-2889
31960,Honey Creek Mall,"3401 South US Highway 41, Suite E-1",Honey Creek Mall,Terre Haute,IN,47802,1-812-233-8185
31961,Cobblestone Creek Retail Cente,4150 Yellowstone Avenue,Cobblestone Creek Retail Cente,Pocatello,ID,83202,1-208-238-5777
31962,Fallbrook Square Shopping Cent,6605 North Fallbrook Avenue,Fallbrook Square Shopping Cent,West Hills,CA,91307,1-818-610-7640
31963,Springfield Commons,1254 South Holland-Sylvania Road,Springfield Commons,Holland,OH,43528,1-419-867-8679
31964,Lakewood Center,342 Lakewood Center,Lakewood Center,Lakewood,CA,90712,1-562-272-0281
31965,The Plaza at Delray,1636 South Federal Highway,The Plaza at Delray,Delray Beach,FL,33483,1-561-274-2788
31966,The Court at Deptford II,"1555 Almonesson Road, Suite B",The Court at Deptford II,Deptford,NJ,8096,1-856-227-7630
31967,Hampton Plaza,2884 Wilma Rudolph Boulevard,Hampton Plaza,Clarksville,TN,37040,1-931-648-7110
31968,Midland Place,913 Joe Mann Boulevard,Midland Place,Midland,MI,48642,1-989-832-2210
31969,Victor Crossing,417 Commerce Drive,Victor Crossing,Victor,NY,14564,1-585-924-8098
31970,The Market Place II,13676 Jamboree Road,The Market Place II,Irvine,CA,92602,1-714-573-2675
31971,Manchester Village Shopping Center,544 John Ross Parkway,Manchester Village Shopping Center,Rock Hill,SC,29730,1-803-329-8582
31972,Harper Village Center,"12765 Harper Village Drive, Suite 150",Harper Village Center,Battle Creek,MI,49014,1-269-979-1257
31973,Albany # 739,852 North Westover Boulevard,Albany # 739,Albany,GA,31707,1-229-420-0505
31974,Mansfield Town Center West,"2041 North Highway 287, Suite 815",Mansfield Town Center West,Mansfield,TX,76063,1-817-473-1682
31975,Poyner Place Shopping Center,"5900 Poyner Anchor Lane, Suite 157",Poyner Place Shopping Center,Raleigh,NC,27616,1-919-872-5597
31976,Phoenix Center II,1956 Charlotte's Way,Phoenix Center II,Washington,MO,63090,1-636-390-3903
31977,Capitola Mall,"1855 41st Avenue, Suite E10",Capitola Mall,Capitola,CA,95010,1-831-477-9045
31978,Rookwood Commons,2699 Edmonson Road,Rookwood Commons,Cincinnati,OH,45209,1-513-351-2835
31979,Ward Parkway Center,"8600 Ward Parkway, Suite 1015",Ward Parkway Center,Kansas City,MO,64114,1-816-237-1391
31980,Merchant's Walk,"3615 South Florida Avenue, Suite 320",Merchant's Walk,Lakeland,FL,33803,1-863-646-6152
31981,Millcreek Pavilion,"2088 Interchange Road, Unit 24",Millcreek Pavilion,Erie,PA,16565,1-814-868-5190
31982,Midtown Crossing,"4550 Pico Boulevard, Suite C321",Midtown Crossing,Los Angeles,CA,90019,1-323-934-3692
31983,Cranberry Creek Center,1058 North Eisenhower Drive,Cranberry Creek Center,Beckley,WV,25801,1-304-253-5345
31984,University Station,237 University Avenue,University Station,Westwood,MA,2090,1-781-326-6486
31985,Foundry Row,10020 Reisterstown Road,Foundry Row,Owings Mills,MD,21117,1-410 363-0237
31986,The Exchange at HomePlace,1466 Cotton Exchange,The Exchange at HomePlace,Prattville,AL,36066,1-334-285-7717
31987,Renaissance Center,375 East Altamonte Drive,Renaissance Center,Altamonte Springs,FL,32701,1-407-260-1307
31988,Treasure Coast Plaza,423 21st  Street,Treasure Coast Plaza,Vero Beach,FL,32960,1-772-794-3513
31989,Fairfield Place,131 East Swedesford Road,Fairfield Place,Exton,PA,19341,1-610-594-2528
31990,The Pinnacle,456 Pinnacle Parkway,The Pinnacle,Bristol,TN,37620,1-423-764-0005
31991,Downtown Summerlin,"2310 Park Centre Drive, Suite 180",Downtown Summerlin,Las Vegas,NV,89135,1-702-256-3122
31992,Cocoplum Village Shops,18395 Tamiami Trail,Cocoplum Village Shops,North Port,FL,34287,1-941-423-3918
31993,Triangle Center,"200 Triangle Center, Suite 260",Triangle Center,Longview,WA,98632,1-360-425-0169
31994,Papermill Plaza,6710 Papermill Drive,Papermill Plaza,Knoxville,TN,37919,1-865-330-9743
31995,Shops at RiverGate South,"13540 Hoover Creek Boulevard, Suite 100",Shops at RiverGate South,Charlotte,NC,28273,1-704-583-0660
31996,Hanes Point Shopping Center,1030 Hanes Mall Boulevard,Hanes Point Shopping Center,Winston Salem,NC,27103,1-336-794-9136
31997,Lakeland Park Center,"919 Lakeland Park Center Drive, Suite 344",Lakeland Park Center,Lakeland,FL,33809,1-863-853-7403
31998,Grant Creek Town Center,"3275 North Reserve Street, Suite M",Grant Creek Town Center,Missoula,MT,59808,1-406-541-9155
31999,Stirling Lafayette Shopping Ce,"3215 Louisiana Avenue, Suite 104",Stirling Lafayette Shopping Ce,Lafayette,LA,70501,1-337-232-1252
32000,Bull Run Plaza,10640 Sudley Manor Drive,Bull Run Plaza,Manassas,VA,20109,1-703-530-6176
32001,The Shops at Fort Union,"900 East Fort Union Boulevard, #52",The Shops at Fort Union,Midvale,UT,84047,1-801-566-0098
32002,Connecticut Commons,240 New Britain Avenue,Connecticut Commons,Plainville,CT,6062,1-860-747-5140
32003,Westfield Vancouver Mall,8700 Northeast Vancouver Mall Drive,Westfield Vancouver Mall,Vancouver,WA,98662,1-360-883-5452
32004,Holyoke Crossing,15 Holyoke Street,Holyoke Crossing,Holyoke,MA,1040,1-413-533-3519
32005,Kentucky Oaks Pavilion,"3051 New Hold Road, Suite C-2",Kentucky Oaks Pavilion,Paducah,KY,42001,1-270-442-8089
32006,Berkshire Crossing,"555 Hubbard Avenue, Suite 12",Berkshire Crossing,Pittsfield,MA,1201,1-413-442-1378
32007,Brickyard Square,"11 Brickyard Square, Suite 21",Brickyard Square,Epping,NH,3042,1-603-679-1397
32008,Aspen Grove,"7301 South Santa Fe Drive, Suite 530",Aspen Grove,Littleton,CO,80120,1-303-797-9511
32009,Puente Hills East,"17651 Colima Road, Unit D",Puente Hills East,City of Industry,CA,91748,1-626-810-5867
32011,Homestead Square,20580 Homestead Road,Homestead Square,Cupertino,CA,95014,1-408-873-8065
32012,Marketplace at El Paseo,6587 North Riverside Drive,Marketplace at El Paseo,Fresno,CA,93722,1-559-277-3620
32013,First and Main Town Center,3153 Cinema Point,First and Main Town Center,Colorado Springs,CO,80922,1-719-574-6042
32014,Lakewood Village Shopping Cent,2743 Lakewood Village Drive,Lakewood Village Shopping Cent,North Little Rock,AR,72116,1-501-771-0626
32015,West Palm Beach Center,"1855 Palm Beach Lakes Boulevard, Suite B-21",West Palm Beach Center,West Palm Beach,FL,33401,1-561-471-5122
32016,Clark Commons,"1255 Raritan Road, Unit 240",Clark Commons,Clark,NJ,7066,1-732-499-0239
32017,Sadler Center,357 Merhar Avenue,Sadler Center,Fairbanks,AK,99701,1-907-455-4305
32018,Crossroads at Riverbank,2407 Claribel Road,Crossroads at Riverbank,Riverbank,CA,95367,1-209-863-8890
32019,Washington Crown Center,1500 West Chestnut Street,Washington Crown Center,Washington,PA,15301,1-724-225-8349
32020,Tikahtnu Commons Shopping Center,"1068 North Muldoon Road, Suite 100",Tikahtnu Commons Shopping Center,Anchorage,AK,99504,1-907-332-4040
32021,Colonial Commons,5112 Jonestown Road,Colonial Commons,Harrisburg,PA,17112,1-717-545-1960
32022,Seabrook Town Center,"700 Lafayette Road, Unit 120",Seabrook Town Center,Seabrook,NH,3874,1-603-474-0831
32023,Westminster City Center,9320 Sheridan Boulevard,Westminster City Center,Westminster,CO,80031,1-303-429-1705
32024,Ulta Center,3031 East Highland Drive,Ulta Center,Jonesboro,AR,72401,1-870-268-1693
32025,Corvallis Market Center,"1550 Northwest 9th Street, Suite 107",Corvallis Market Center,Corvallis,OR,97330,1-541-758-2004
32026,Mountain Grove,"27461 San Bernardino Avenue, Suite 150",Mountain Grove,Redlands,CA,92374,1-909-335-5709
32027,Bartonsville Square,"300 Commerce Boulevard, Suite 170",Bartonsville Square,Stroudsburg,PA,18360,1-570-421-7836
32028,Parkside,"7800 John Davis Drive, Suite 800",Parkside,Frankfort,KY,40601,1-502-695-5507
32029,Marlboro Commons,103 Route 9 South,Marlboro Commons,Marlboro Township,NJ,7746,1-732-617-0105
32030,Village Oaks,"5650 Cottle Road, Suite 20",Village Oaks,San Jose,CA,95123,1-408-229-2702
32031,Crossways Shopping Center,"1412 Greenbrier Parkway, Suite 105-A",Crossways Shopping Center,Chesapeake,VA,23320,1-757-424-0236
32032,Gateway Towne Center,1781 South Alameda Street,Gateway Towne Center,Compton,CA,90220,1-310-885-1802
32033,Willows Shopping Center,"1975 Diamond Boulevard, Suite D130",Willows Shopping Center,Concord,CA,94520,1-925-609-9753
32235,Tampa Plaza,8941 Tampa Avenue,Tampa Plaza,Northridge,CA,91324,1-818-718-7440
32236,Greenwood Commons,103 Commons Drive,Greenwood Commons,Greenwood,SC,29649,1-864-942-1829
32237,Deerfield Mall,3820 West Hillsboro Boulevard,Deerfield Mall,Deerfield Beach,FL,33442,1-954-570-9628
32238,Macedonia Commons,"8210 Macedonia Commons Boulevard, Unit 28",Macedonia Commons,Macedonia,OH,44056,1-330-467-9195
32239,The Hay Creek Shops,1461 East LaSalle Drive,The Hay Creek Shops,Bismarck,ND,58503,1-701-223-3243
32240,Seatac Village Shopping Center,1800 South 320th Street,Seatac Village Shopping Center,Federal Way,WA,98003,1-253-839-1439
32241,East Bay Bridge,"3839 Emery Street, Suite 200",East Bay Bridge,Emeryville,CA,94608,1-510-601-1890
32242,Northcrest Shopping Center,"705 East Coliseum Boulevard, Suite B",Northcrest Shopping Center,Fort Wayne,IN,46805,1-260-483-0003
32243,Marina Marketplace,"13455 Maxell Avenue, Suite 120",Marina Marketplace,Marina del Rey,CA,90292,1-310-301-8261
32244,South Beach Regional,3928 3rd Street South,South Beach Regional,Jacksonville Beach,FL,32250,1-904-247-6895
32245,Cranberry Mall,"20111 Route 19, Suite 110",Cranberry Mall,Cranberry Township,PA,16066,1-724-776-3975
32246,Viera Shops,"2304 Remi Drive, Suite 101",Viera Shops,Viera,FL,32940,1-321-631-8613
32247,Monandock Marketplace,30 Ash Brook Road,Monandock Marketplace,Keene,NH,3431,1-603-352-3711
32248,Destiny USA,"1 Destiny USA Drive, Space M103",Destiny USA,Syracuse,NY,13204,1-315-476-1237
32249,Alexandria Mall,"3435 Masonic Drive, Suite 1236",Alexandria Mall,Alexandria,LA,71301,1-318-443-7016
32250,Dunes Plaza,120 Dunes Plaza,Dunes Plaza,Michigan City,IN,46360,1-219-879-1301
32251,The Marketplace at Factoria,4036 Factoria Square Mall Southeast,The Marketplace at Factoria,Bellevue,WA,98006,1-425-643-2666
32252,East Viking Plaza,416 Viking Plaza Drive,East Viking Plaza,Cedar Falls,IA,50613,1-319-266-6448
32253,Coastal North Town Center,1564 Highway 17 North,Coastal North Town Center,North Myrtle Beach,SC,29582,1-843-249-4075
32254,Oxford Galleria II,600 Merchants Drive,Oxford Galleria II,Oxford,MS,38655,1-662-232-8970
32255,Prien Lake Mall,316 West Prien Lake Road,Prien Lake Mall,Lake Charles,LA,70601,1-337-478-1359
32256,Harlingen Corners Shopping Center,"2717 West Expressway 83, Suite 100",Harlingen Corners Shopping Center,Harlingen,TX,78552,1-956-440-8296
32257,Prescott Valley # 1023,5683 East State Route 69,Prescott Valley # 1023,Prescott Valley,AZ,86314,1-928-445-0056
32258,Wildwood Crossings Shopping Ce,"3535 Missouri Boulevard, Suite 111",Wildwood Crossings Shopping Ce,Jefferson City,MO,65109,1-573-632-0041
32259,Wilton Mall,"3065 Route 50, Space B100",Wilton Mall,Saratoga Springs,NY,12866,1-518-581-8026
32260,Cape Town Plaza,790 Iyannough Road,Cape Town Plaza,Hyannis,MA,2601,1-508-775-3840
32261,Gardens on Havana,"1150 South Ironton Street, Unit 110",Gardens on Havana,Aurora,CO,80012,1-303-745-2640
32262,Huntington Mall,810 Mall Road,Huntington Mall,Barboursville,WV,25504,1-304-733-0007
32263,Southland Center,23000 Eureka,Southland Center,Taylor,MI,48180,1-734-287-0084
32264,Dover Town Center,"1574 North Dupont Highway, Suite 600",Dover Town Center,Dover,DE,19901,1-302-735-7913
32265,Target Place Plaza,"2915 Harrison Avenue Northwest, Unit 255",Target Place Plaza,Olympia,WA,98502,1-360-352-0496
32266,South Hill Mall,"3500 Meridian, Unit 510",South Hill Mall,Puyallup,WA,98373,1-253-445-7360
32267,Centerplace of Greeley,4126 Centerplace Drive,Centerplace of Greeley,Greeley,CO,80634,1-970-330-0586
32268,Sayebrook Shopping Center,120 Sayebrook Parkway,Sayebrook Shopping Center,Myrtle Beach,SC,29588,1-843-293-2712
32269,Eastland Center,"2700 East Workman Avenue, Suite A",Eastland Center,West Covina,CA,91791,1-626-331-8396
32270,Christina Fashion Center,2130 Fashion Center Boulevard,Christina Fashion Center,Newark,DE,19702,1-302-738-5302
32271,Madonna Plaza,"281 Madonna Road, Suite C",Madonna Plaza,San Luis Obispo,CA,93405,1-805-543-2783
32272,Pikeville Commons,"120 Justice Way, Suite 130",Pikeville Commons,Pikeville,KY,41501,1-606-432-1092
32273,Mall at Bay Plaza,"200 Baychester Avenue, Suite 122A",Mall at Bay Plaza,Bronx,NY,10475,1-718-862-4024
32274,The Bullseye,508 North 18th Avenue,The Bullseye,Columbus,MS,39705,1-662-240-8981
32275,City Center,"2675 Geary Boulevard, Suite 100",City Center,San Francisco,CA,94118,1-415-202-0136
32276,Valdosta Mall,"1700 Norman Drive, Suite 510",Valdosta Mall,Valdosta,GA,31601,1-229-671-1298
32277,South Hills Village,"301 South Hills Village, Sp LL",South Hills Village,Pittsburgh,PA,15241,1-412-835-2957
32278,Canyon Park West,1951 Fillmore Street,Canyon Park West,Twin Falls,ID,83301,1-208-733-1622
32279,The Shoppes at Flemington,"100 Reaville Avenue, Suite 247",The Shoppes at Flemington,Flemington,NJ,8822,1-908-237-0687
32280,Central Texas Marketplace,"2432 West Loop 340, Suite A",Central Texas Marketplace,Waco,TX,76711,1-254-662-9117
32281,Ingram Festival Shopping Cente,"6065 Northwest Loop 410, Suite 196",Ingram Festival Shopping Cente,San Antonio,TX,78238,1-210-521-2784
32282,Hunter's Ridge,"10701 Blacklick-Eastern Road, Space 300",Hunter's Ridge,Pickerington,OH,43147,1-614-866-0138
32283,Countryside Marketplace,30050 Haun Road,Countryside Marketplace,Menifee,CA,92584,1-951-301-0487
32284,Central Mall,3347 Mall Drive,Central Mall,Texarkana,TX,75503,1-903-831-0043
32285,Pinole # 1051,1216 Fitzgerald Drive,Pinole # 1051,Pinole,CA,94564,1-510-262-9541
32286,Lewisville Towne Crossing,"4750 State Highway 121, Suite 100",Lewisville Towne Crossing,Lewisville,TX,75056,1-469-362-3602
32287,Square Too,10206 Soutwest Washington Square Road,Square Too,Tigard,OR,97223,1-503-431-2227
32288,The Downey Promenade,9020 Apollo Way,The Downey Promenade,Downey,CA,90242,1-562-401-0013
32289,Crossroads Mall,"15600 Northeast 8th Street, Suite F-17",Crossroads Mall,Bellevue,WA,98008,1-425-562-3016
32290,Brickyard Plaza Shopping Cente,1202 Brickyard Road,Brickyard Plaza Shopping Cente,Salt Lake City,UT,84106,1-801-466-9129
32291,Shops at Ithaca Mall,40 Catherwood Road,Shops at Ithaca Mall,Ithaca,NY,14850,1-607-257-2361
32292,Westland Shopping Center,"35000 West Warren Road, Unit 501",Westland Shopping Center,Westland,MI,48185,1-734-762-0638
32293,Hickory Point Mall,"1146 Hickory Point Mall, Suite 1420",Hickory Point Mall,Forsyth,IL,62535,1-217-876-8579
32294,Randolph Mall,"1437 East Dixie Drive, Suite G14",Randolph Mall,Asheboro,NC,27203,1-336-636-5274
32295,Spring Prairie Center,155 Treeline Road,Spring Prairie Center,Kalispell,MT,59901,1-406-756-0907
32296,Valley Fair Mall,3579 South Constitution Boulevard,Valley Fair Mall,West Valley City,UT,84119,1-801-966-0135
32297,Paso Crossings,2145 Theatre Drive,Paso Crossings,Paso Robles,CA,93446,1-805-226-9738
32298,Rock Creek Plaza,2795 Bell Road,Rock Creek Plaza,Auburn,CA,95603,1-530-887-8905
32299,Bayfair Center,"15555 East 14th Street, Suite 106",Bayfair Center,San Leandro,CA,94578,1-510-276-1791
32300,South Park Mall,"2310 Southwest Military Drive, Suite 230",South Park Mall,San Antonio,TX,78224,1-210-932-9388
32301,King of Prussia Town Center,"131 Town Square Place, Suite 2A",King of Prussia Town Center,King Of Prussia,PA,19406,1-610-337-0111
32302,Zinfandel Square,10919 Olson Drive,Zinfandel Square,Rancho Cordova,CA,95670,1-916-853-2216
32303,Viewmont Mall,"100 Viewmont Mall, Space 810",Viewmont Mall,Scranton,PA,18508,1-570-344-5607
32304,Patriot Commons,968 Port Washington Road,Patriot Commons,Grafton,WI,53024,1-262-375-1126
32305,Burleson Crossing,753B West State Highway 71,Burleson Crossing,Bastrop,TX,78602,1-512-332-0374
32306,The Shoppes at DePiero Farm,32 Farm View,The Shoppes at DePiero Farm,Montvale,NJ,7645,1-201-930-8523
32308,Guilford Commons,"1919 Boston Post Road, Suite 255",Guilford Commons,Guilford Commons,CT,6437,1-203-453-0544
32309,Morganton Heights,C-126 Morganton Heights Boulevard,Morganton Heights,Morganton,NC,28655,1-828-432-9781
32310,Vernal Towne Center,2017 West Highway 40,Vernal Towne Center,Vernal,UT,84078,1-435-781-8185
32311,Fountain Square,"10001 West Flagler Street, Suite 500",Fountain Square,Miami,FL,33174,1-305-227-5728
32312,Shops At Shelby Crossing,1736 Highway 27 North,Shops At Shelby Crossing,Sebring,FL,33870,1-863-471-0381
32313,Knollwood Mall,8338 State Highway 7,Knollwood Mall,St. Louis Park,MN,55426,1-952-938-2079
32314,Sun Center,3632 W. Dublin Granville Rd.,Sun Center,Columbus,OH,43235,1-614-717-9046
32315,College Mall,"2894 East 3rd Street, Suite 120",College Mall,Bloomington,IN,47401,1-812-323-6059
32316,Macomb Mall,"32295 Gratiot Avenue, Space 680",Macomb Mall,Roseville,MI,48066,1-586-296-2559
32317,Glade Parks,"2901 Rio Grande Boulevard, Suite 600",Glade Parks,Euless,TX,76039,1-817-358-2073
32318,Alabaster Promenade,"100 South Colonial Drive, Suite 2400",Alabaster Promenade,Alabaster,AL,35007,1-205-664-4985
32319,Shawnee Marketplace,"4850 Market Place Boulevard, Suite 1100",Shawnee Marketplace,Shawnee,OK,74804,1-405-878-8550
32320,Marketplace at Tech Center,"12080 Jefferson Avenue, Suite 600",Marketplace at Tech Center,Newport News,VA,23606,1-757-249-4139
32321,Anaheim Plaza,574 North Euclid Street,Anaheim Plaza,Anaheim,CA,92801,1-714-758-2869
32322,Stone Hill Town Center,"19000 Limestone Commercial Drive, Suite 140",Stone Hill Town Center,Pfluerville,TX,78660,1-512-989-9921
32323,Walden Park,10900 Lakeline Mall Drive,Walden Park,Austin,TX,78717,1-512-250-8116
32324,The Willows,800 Plainfield Rd.,The Willows,Willowbrook,IL,60527,1-630-852-6380
32325,The Shops on Lane Avenue,1645 West Lane Avenue,The Shops on Lane Avenue,Upper Arlington,OH,43221,1-614-485-9193
32326,Las Tiendas Plaza,543 East Morrison Road,Las Tiendas Plaza,Brownsville,TX,78526,1-956-350-9997
32327,Simi Valley Town Center,"1555 Simi Town Center Way, Suite 600",Simi Valley Town Center,Simi Valley,CA,93065,1-805-306-1219
32328,Valley View Mall,"3800 State Road 16, Unit 0157",Valley View Mall,LaCrosse,WI,54601,1-608-779-0325
32329,The Overlook,202 Line Creek Drive,The Overlook,Peachtree City,GA,30269,1-770-486-2514
32330,Coastal Landing,7211 Coastal Boulevard,Coastal Landing,Brooksville,FL,34613,1-352-597-9463
32331,Lake Mead Crossing,"300 West Lake Mead Parkway, Suite 130",Lake Mead Crossing,Henderson,NV,89015,1-702-565-2615
32332,Village at Stone Oak,"22806 US Highway 281 North, Suite 106",Village at Stone Oak,San Antonio,TX,78258,1-210-481-9140
32333,Palm Coast Landing at Town Center,"5224 Florida Highway 100, Unit B",Palm Coast Landing at Town Center,Palm Coast,FL,32164,1-386-437-7239
32334,4S Commons Town Center,"10455 4 South Reserve Drive, Suite 151",4S Commons Town Center,San Diego,CA,92127,1-858-676-6831
32335,Sunnybrook Village,5747 Sunnybrook Drive,Sunnybrook Village,Sioux City,IA,51106,1-712-276-3361
32336,Highland Commons,16 Highland Commons East,Highland Commons,Hudson,MA,1749,1-978-567-5812
32337,Post Road Plaza,2532 South Road (US Route 9),Post Road Plaza,Poughkeepsie,NY,12601,1-845-432-3608
32338,Mesilla Valley Mall,"700 South Telshor Boulevard, Suite 1308",Mesilla Valley Mall,Las Cruces,NM,88011,1-575-522-5419
32339,Rocklin Commons,5120 Commons Drive,Rocklin Commons,Rocklin,CA,95677,1-916-660-9208
32340,Adrian Plaza,"1651 US 223, Suite B",Adrian Plaza,Adrian,MI,49221,1-517-263-4782
32341,La Habra Marketplace,1521 West Imperial Highway,La Habra Marketplace,La Habra,CA,90631,1-562-691-3493
32342,Guernsey Crossing,"1251 North Bridge Street, Suite B",Guernsey Crossing,Chillicothe,OH,45601,1-740-774-4744
32343,Three Rivers Plaza Shopping Ce,709 West Shawnee Avenue,Three Rivers Plaza Shopping Ce,Muskogee,OK,74401,1-918-683-1812
32344,Rosemead Place Shopping Center,3534 Rosemead Boulevard,Rosemead Place Shopping Center,Rosemead,CA,91770,1-626-571-1863
32345,Pace Crossroads,4877 Highway 90,Pace Crossroads,Pace,FL,32571,1-850-889-8042
32346,Clairemont Town Square,4941 B Clairemont Drive,Clairemont Town Square,San Diego,CA,92117,1-858-581-9003
32347,Woodland Plaza Shopping Center,"8722 East 71st Street, Suite 872",Woodland Plaza Shopping Center,Tulsa,OK,74133,1-918-250-9053
32348,Otay Ranch Town Center,"2015 Birch Road, Suite 1801",Otay Ranch Town Center,Chula Vista,CA,91915,1-619-482-6962
32349,"Cullman Shopping Center, NW",1108 Cullman Shopping Center,"Cullman Shopping Center, NW",Cullman,AL,35055,1-256-734-8874
32350,Superior Marketplace,530 Marshall Road,Superior Marketplace,Superior,CO,80027,1-303-494-1034
32351,Decatur 215 Shopping Center,6341 North Decatur Boulevard,Decatur 215 Shopping Center,Las Vegas,NV,89130,1-702-396-3583
32352,Mesa Center,257 East 17th Street,Mesa Center,Costa Mesa,CA,92627,1-949-650-0573
32353,Delta Shores,8180 Delta Shores Cir. S,Delta Shores,Sacramento,CA,95832,1-916-665-1205
32354,Mohawk Commons,"400 Balltown Road, Space 3",Mohawk Commons,Schenectady,NY,12304,1-518-344-7023
32355,Towne Centre at Laurel,"14710 Baltimore Avenue, Suite 104",Towne Centre at Laurel,Laurel,MD,20707,1-240-456-0763
32356,Livingston,530 West Mount Pleasant Avenue B1,Livingston,Livingston,NJ,7039,1-973-992-6403
32357,Ammon Town Center,1967 South 25th East,Ammon Town Center,Ammon,ID,83406,1-208-227-0303
32358,Consumer Center,"310 SR 36, Suite 801",Consumer Center,West Long Branch,NJ,7764,1-732-460-0478
32359,Ventura Place,"8810 Holly Avenue Northeast, Suite D",Ventura Place,Albuquerque,NM,87122,1-505-797-8458
32360,Parkway Towne Crossing,"4995 Eldorado Parkway, Suite 300",Parkway Towne Crossing,Frisco,TX,75034,1-469-362-8201
32361,Northridge Mall,860 Northridge Shopping Center,Northridge Mall,Salinas,CA,93906,1-831-444-0495
32362,Tamiami Crossing,"13100 Tamiami Trial East, Suite 101",Tamiami Crossing,Naples,FL,34114,1-239-530-1210
32363,Gateway Mall,"3000 Gateway Street, Suite 222",Gateway Mall,Springfield,OR,97477,1-541-746-5052
32364,Janesville Mall,"2500 Milton Avenue, Suite 199",Janesville Mall,Janesville,WI,53545,1-608-373-7322
32365,The Commons at Temecula,40460 Winchester Road,The Commons at Temecula,Temecula,CA,92591,1-951-296-0776
32366,Gateway Pavilions,"10050 West McDowell Rd., Suite 110",Gateway Pavilions,Avondale,AZ,85323,1-480-770-3880
32367,Trails at Silverdale,"11066 Pacific Crest Place, Suite A-120",Trails at Silverdale,Silverdale,WA,98383,1-360-204-5169
32368,The Shops at Valley Square,1561 Main Street,The Shops at Valley Square,Warrington,PA,18976,1-215-491-7534
32369,Waterford Commons,"903 Hartford Turnpike, Space 26",Waterford Commons,Waterford,CT,6385,1-860-437-3297
32370,Monroe Marketplace,422 Marketplace Boulevard,Monroe Marketplace,Selinsgrove,PA,17870,1-570-743-8434
32371,The Shoppes at County Line,"8811 Hardegan Street, Suite 360",The Shoppes at County Line,Indianapolis,IN,46227,1-317-883-1256
32372,Wicker Park Commons,1300 North Ashland Avenue Front J,Wicker Park Commons,Chicago,IL,60622,1-773-227-7615
32373,Northgate Mall,366 Northgate Mall Drive,Northgate Mall,Chattanooga,TN,37415,1-423-877-8902
32374,Fairfield Town Center,"28702 Highway 290, Suite XI",Fairfield Town Center,Cypress,TX,77433,1-281-758-1687
32375,Shops on Ardmore,1215 12th Avenue NorthWest,Shops on Ardmore,Ardmore,OK,73401,1-580-490-3514
32376,Stateboro Crossing,379 Henry Boulevard,Stateboro Crossing,Statesboro,GA,30458,1-912-489-3463
32377,Stadium Center,2292 Daniels Street,Stadium Center,Manteca,CA,95337,1-209-823-2352
32378,Hamilton Crossings,"833 North Krocks Road, Suite 103",Hamilton Crossings,Allentown,PA,18106,1-610-398-1846
32379,Main Street at Oak Ridge,749 Main Street W.,Main Street at Oak Ridge,Oak Ridge,TN,37830,1-865-425-4344
32380,Promenade at Castle Rock,"6378 Promenade Pkwy, Unit 300",Promenade at Castle Rock,Castle Rock,CO,80108,1-303-663-9166
32381,Dakota Square Mall,"2400 10th Street Southwest, Space 700",Dakota Square Mall,Minot,ND,58701,1-701-838-6120
32382,Village Center,"5630 Washington Avenue 1, Unit 13",Village Center,Mount Pleasant,WI,53406,1-262-634-0067
32383,Coralwood Center,"2301 Del Prado Boulevard South, Suite 1070",Coralwood Center,Cape Coral,FL,33990,1-239-458-3522
32384,CoolSprings Galleria,"1910 Galleria Boulevard, Suite 100",CoolSprings Galleria,Franklin,TN,37067,1-615-771-1850
32385,Perimeter Station,"120 Perimeter Center West, 200",Perimeter Station,Dunwoody,GA,30346,1-770-391-2301
32386,Sunwest Village Shopping Center,1423 South Lower Sacramento Road,Sunwest Village Shopping Center,Lodi,CA,95242,1-209-368-2115
32387,Tyler Gateway,"3502 Tyler Street, Suite 101",Tyler Gateway,Riverside,CA,92503,1-951-689-0235
32388,Homestead Village,5473 Patrick Way,Homestead Village,Birmingham,AL,35235,1-205-655-0767
32389,Titus Landing,"2430 S. Washington Ave, Suite 101",Titus Landing,Titusville,FL,32780,1-321-607-3748
32390,Liberty Commons,249 South Stewart Road,Liberty Commons,Liberty,MO,64068,1-816-415-3915
32391,Lee Vista Promenade,"6775 Eagle Watch Drive, # 150",Lee Vista Promenade,Orlando,FL,32822,1-407-855-9548
32392,The Shoppes at Burbank,"4369 Burbank Road, Suite 30",The Shoppes at Burbank,Wooster,OH,44691,1-330-345-2274
32393,Frontier Mall,"1400 Dell Range Boulevard, Suite 83",Frontier Mall,Cheyenne,WY,82009,1-307-634-5282
32394,Dulles Landing,"24630 Dulles Landing Drive, 160",Dulles Landing,Dulles,VA,20166,1-703-327-1401
32395,Montecito Crossing,6740 North Durango Drive,Montecito Crossing,Las Vegas,NV,89149,1-702-395-0569
32396,Dimond Center,"800 East Dimond Boulevard, Suite 190",Dimond Center,Anchorage,AK,99515,1-907-336-7100
32397,32 East,"700 Eastgate South Drive, Suite 250",32 East,Cincinnati,OH,45245,1-513-752-1472
32398,The Shoppes at Rio Grande Vall,601 East Trenton Road,The Shoppes at Rio Grande Vall,Edinburg,TX,78539,1-956-386-1842
32399,Bandera Pointe,"11657 Bandera Road, Suite 106",Bandera Pointe,San Antonio,TX,78250,1-210-647-7313
32400,Ridgeview Plaza,"5110 Mae Anne Avenue, Suite 601",Ridgeview Plaza,Reno,NV,89523,1-775-624-6201
32401,Fire Creek Crossing,"4891 Kietzke Lane, Suite A",Fire Creek Crossing,Reno,NV,89509,1-775-823-9128
32402,Foothills Mall,"190 East Foothills Parkway, Unit 110",Foothills Mall,Fort Collins,CO,80525,1-970-282-1188
32403,Waxahachie Marketplace,"1700 North Highway 77, Suite 120",Waxahachie Marketplace,Waxahachie,TX,75165,1-972-923-7761
32404,Shoppes at Belmont,"1575 Fruitville Pike, Suite 4",Shoppes at Belmont,Lancaster,PA,17601,1-717-390-1937
32405,Ohio Valley Mall,"67800 Mall Ring Road, Unit #110",Ohio Valley Mall,St. Clairsville,OH,43950,1-740-695-9107
32406,Parkway Center South,1711 Stringtown Road,Parkway Center South,Grove City,OH,43123,1-614-539-0104
32407,Tollgate Marketplace,"615 Bel Air Road, Building E, Suite P",Tollgate Marketplace,Bel Air,MD,21014,1-410-836-9435
32408,Oxford Commons,"50 Commons Way, Suite A",Oxford Commons,Oxford,AL,36203,1-256-371-6586
32409,Baytown Marketplace Shopping Center,"6345 Garth Road, Suite 130",Baytown Marketplace Shopping Center,Baytown,TX,77521,1-281-691-6739
32410,Valley Mall,"1925 East Market Street, Suite 104",Valley Mall,Harrisonburg,VA,22801,1-540-434-1727
32411,The Block Northway,6240 Northway Drive,The Block Northway,Pittsburgh,PA,15237,1-412-366-0492
32412,Tarpon Mall,40960 US Highway 19 North,Tarpon Mall,Tarpon Springs,FL,34689,1-727-934-7980
32413,Meadowbrook Mall,"2399 Meadowbrook Road, Suite 570",Meadowbrook Mall,Bridgeport,WV,26330,1-304-842-0538
32414,The Landing in Renton,"815 North 10th Street, Building 201, Suite B",The Landing in Renton,Renton,WA,98057,1-425-255-0317
32415,San Clemente Plaza,510 Camino de Estrella,San Clemente Plaza,San Clemente,CA,92672,1-949-489-1841
32416,Solano Town Center,"1350 Travis Boulevard, Suite 1475-B",Solano Town Center,Fairfield,CA,94533,1-707- 427-1952
32417,Hampton Roads Crossing,"1011 University Boulevard, Unit 130",Hampton Roads Crossing,Suffolk,VA,23435,1-757-483-2510
32418,The Shoppes at Parma,7735 West Ridgewood Drive,The Shoppes at Parma,Parma,OH,44129,1-440-888-1283
32419,Belle Isle Station,1700 Belle Isle Boulevard,Belle Isle Station,Oklahoma City,OK,73118,1-405-840-7807
32420,Butler Crossing,714 Butler Crossing,Butler Crossing,Butler,PA,16001,1-724-285-0022
32421,Kingston Mall,"400 King's Mall Court, Suite 440",Kingston Mall,Kingston,NY,12401,1-845-336-5120
32422,Lufkin Retail Center,4419 South Medford Drive,Lufkin Retail Center,Lufkin,TX,75901,1-936-632-5585
32423,Lady Lake Crossing Plaza,"460 US Highway 27, 441",Lady Lake Crossing Plaza,Lady Lake,FL,32159,1-352-674-0392
32424,27th & Iowa Center,"2727 Iowa Street, Suite F",27th & Iowa Center,Lawrence,KS,66046,1-785-841-3790
32425,Stephanie Street Power Center,519 North Stephanie Street,Stephanie Street Power Center,Henderson,NV,89014,1-702-435-1038
32426,LaSalle Center,"1520 Military Road, Suite 180",LaSalle Center,Niagara Falls,NY,14304,1-716-297-3432
32427,Shoppes of Fenton,"3259 Owen Road, Suite 200",Shoppes of Fenton,Fenton,MI,48430,1-810-714-5445
32428,Crossroads Center,15224 B Crossroads Parkway,Crossroads Center,Gulfport,MS,39503,1-228-831-8130
32429,Peninsula Center,51A Peninsula Center,Peninsula Center,Rolling Hills Estates,CA,90274,1-310-377-1282
32430,Pelican Plaza,8240 South Tamiami Trail,Pelican Plaza,Sarasota,FL,34238,1-941-966-0275
32431,Wayne Towne Center,181 Route 23,Wayne Towne Center,Wayne,NJ,7470,1-973-339-5046
32432,Ritchie Station Marketplace,1671 Ritchie Station Court,Ritchie Station Marketplace,Capitol Heights,MD,20743,1-240-532-3200
32433,Shoppes at Eagle Point,"1265 Interstate Drive, Suite 119",Shoppes at Eagle Point,Cookeville,TN,38501,1-931-371-7204
32434,White Stone Station,North 91 West 16051 Falls Parkway,White Stone Station,Menomonee Falls,WI,53051,1-262-250-0309
32435,Marketplace at Smyrna,837 Industrial Boulevard,Marketplace at Smyrna,Smyrna,TN,37167,1-615-355-9129
32436,Villages of Amelia,463911 State Road 200,Villages of Amelia,Yulee,FL,32097,1-904-277-1812
32437,West Volusia Town Center,955 Harley Strickland Boulevard,West Volusia Town Center,Orange City,FL,32763,1-386-774-0245
32438,Brick Plaza,70 Brick Plaza,Brick Plaza,Brick Township,NJ,8723,1-732-262-1671
32439,Eldersburg Commons,"6400 A Ridge Road, Suite A-3",Eldersburg Commons,Eldersburg,MD,21784,1-410-795-0417
32440,The Village at Orange,"1500 East Village Way, Suite 2191",The Village at Orange,Orange,CA,92865,1-714-283-2814
32441,New Towne Plaza,44540 Ford Road,New Towne Plaza,Canton,MI,48187,1-734-451-0640
32442,Sherman Commons,4115 North  Highway 75,Sherman Commons,Sherman,TX,75090,1-903-421-0053
32443,Green Acres Commons,"750 West Sunrise Highway, #125",Green Acres Commons,Valley Stream,NY,11582,1-516-825-1340
32444,Northdale Promenade,15732 North Dale Mabry Highway,Northdale Promenade,Tampa,FL,33618,1-813-264-7026
32445,Seminole City Center,7976 113th Street North,Seminole City Center,Seminole,FL,33772,1-727-319-0094
32446,555 Ninth Street Retail Center,555 9th Street,555 Ninth Street Retail Center,San Francisco,CA,94103,1-415-437-4713
32447,Santa Monica # 1213,1234 Wilshire Boulevard,Santa Monica # 1213,Santa Monica,CA,90403,1-310-260-3392
32448,Tech Plaza,8325 East 12th Mile Road,Tech Plaza,Warren,MI,48093,1-586-558-8095
32449,Chico Costco Center,2068 Dr. Martin Luther King Jr. Parkway,Chico Costco Center,Chico,CA,95928,1-530-891-7594
32450,Old Spanish Trail Marketplace,9620 East 22nd Street,Old Spanish Trail Marketplace,Tucson,AZ,85748,1-520-298-8836
32451,Market Square at Eldridge Parkway,"2732 Eldridge Parkway, Suite D",Market Square at Eldridge Parkway,Houston,TX,77082,1-281-589-0644
32452,Gateway Plaza,147 Plaza Drive,Gateway Plaza,Vallejo,CA,94591,1-707-644-4262
32453,Waverly,"7211 Waverly Walk Avenue, Suite JR-1",Waverly,Charlotte,NC,28277,1-704-844-2000
32454,Latham Center,221 Wade Rd. Extension,Latham Center,Latham,NY,12110,1-518-313-4089
32455,Sherman Oaks Collection,"4550 North Van Nuys Boulevard, Suite G",Sherman Oaks Collection,Sherman Oaks,CA,91403,1-818-906-9784
32456,Walla Walla Town Center,1634 W. Poplar St.,Walla Walla Town Center,Walla Walla,WA,99362,1-509-956-3167
32457,New Bern Marketplace,3563 Dr. Martin Luther King Jr. Blvd.,New Bern Marketplace,New Bern,NC,28562,1-252-631-6882
32458,Joliet Commons,2801 Plainfield Road,Joliet Commons,Joliet,IL,60435,1-815-254-5923
32459,Annex of Arlington Heights,13 West Rand Road,Annex of Arlington Heights,Arlington Heights,IL,60004,1-847-818-8296
32460,Parkside West Cobb,"3805 Dallas Highway Southwest, Suite 300",Parkside West Cobb,Marietta,GA,30064,1-678-355-9558
32461,650 Main Avenue,650 Main Avenue,650 Main Avenue,Norwalk,CT,6851,1-203-229-9142
32462,Greene Town Center,"27 Greene Boulevard, T-105",Greene Town Center,Beavercreek,OH,45440,1-937-426-2693
32463,Glenwood Meadows Shopping Cent,135 East Meadows Drive,Glenwood Meadows Shopping Cent,Glenwood Springs,CO,81601,1-970-945-5941
32464,The Parke,"5001 183A Toll Road, Building B-2, Suite 100",The Parke,Cedar Park,TX,78613,1-512-259-1446
32465,Hutchinson Mall,1500 East 11th Avenue,Hutchinson Mall,Hutchinson,KS,67501,1-620-662-2316
32466,Long Beach Towne Center,7401 Carson Boulevard,Long Beach Towne Center,Long Beach,CA,90808,1-562-377-1858
32467,Coral Ridge Mall,"1451 Coral Ridge Ave., Space 1950",Coral Ridge Mall,Coralville,IA,52241,1-319-625-2002
32468,Johnstown Plaza,4824 Thompson Parkway,Johnstown Plaza,Johnstown,CO,80534,1-970-203-9663
32469,Palouse Mall,1730 W. Pullman Road,Palouse Mall,Moscow,ID,83843,1-208-882-1578
32470,Elko Junction,2645 Mountain City Highway,Elko Junction,Elko,NV,89801,1-775-738-5972
32471,Franklin Center,1320 Lincoln Way East,Franklin Center,Chambersburg,PA,17202,1-717-263-7220
32472,Mt. Shasta Mall,"900 Dana Drive, D-15",Mt. Shasta Mall,Redding,CA,96003,1-530-722-9560
32473,Westlake Marketplace,"14275 East Sam Houston Parkway N, Building K",Westlake Marketplace,Houston,TX,77044,1-281-454-2119
32474,The Shops at Stony Creek,7728 26 Mile Road,The Shops at Stony Creek,Shelby Township,MI,48316,1-586-781-3110
32475,The Shops at Riverhead,1738 Old Country Road,The Shops at Riverhead,Riverhead,NY,11901,1-631-296-1071
32476,Grand Parkway Marketplace,"6600 Spring Stuebner Road, Suite 148",Grand Parkway Marketplace,Spring,TX,77389,1-832-717-0267
32477,Porterville Marketplace,1267 West Henderson Avenue,Porterville Marketplace,Porterville,CA,93257,1-559-783-8280
32478,Charles River Center,"249 Hartford Avenue, Suite A-199",Charles River Center,Bellingham,MA,2019,1-508-966-0798
32479,Bryant Square,310 South Bryant Avenue,Bryant Square,Edmond,OK,73034,1-405-330-3780
32480,City Crossing,"2620 Watson Boulevard, Suite 2A",City Crossing,Warner Robins,GA,31093,1-478-322-2548
32481,Ellis Preserve,"3735 West Chester Pike, Suite 200",Ellis Preserve,Newton Square,PA,19073,1-610-353-3987
32482,Greenwich Place,2734 North Greenwich Court,Greenwich Place,Wichita,KS,67226,1-316-636-9016
32483,Friendly Hills Marketplace,15235 Whittier Boulevard,Friendly Hills Marketplace,Whittier,CA,42846,1-562-902-1259
32484,KPC Towne Centre,2243 West Florida Avenue,KPC Towne Centre,Hemet,CA,92545,1-951-652-2966
32485,The Shoppes at Broken Arrow,1520 E. Hillside Dr.,The Shoppes at Broken Arrow,Broken Arrow,OK,74012,1-918-355-6834
32486,Turtle Creek Mall,"1000 Turtle Creek Drive, Suite: #500",Turtle Creek Mall,Hattiesburg,MS,39402,1-601-296-6970
32487,Central Plaza,18418 Collier Avenue,Central Plaza,Lake Elsinore,CA,92530,1-951-228-0214
32488,Town Square Las Vegas,6689 Las Vegas Boulevard South,Town Square Las Vegas,Las Vegas,NV,89119,1-702-614-1780
32489,Pueblo Crossing Shopping Center,5925 North Elizabeth Street,Pueblo Crossing Shopping Center,Pueblo,CO,81008,1-719-253-1968
32490,Sprouts Brokaw,"1038 East Brokaw Road, Suite 10",Sprouts Brokaw,San Jose,CA,95131,1-408-437-8926
32491,Central Park Commons,"1400 Central Park Commons Drive, Suite 120",Central Park Commons,Eagan,MN,55121,1-651-405-3802
32492,Poplar Creek Crossing,2600 New Sutton Road,Poplar Creek Crossing,Hoffman Estates,IL,60192,1-847-645-0226
32493,Almaden Ranch,"5140 Cherry Avenue, Suite 50",Almaden Ranch,San Jose,CA,95118,1-408-445-8310
32494,The Shoppes of Benton,20420 I-30 North,The Shoppes of Benton,Benton,AR,72019,1-501-794-5822
32495,Outer Banks Mall,"5150 South Croatan Highway, #2",Outer Banks Mall,Nags Head,NC,27959,1-252-564-3075
32496,Searcy City Center,1307 Janet Street,Searcy City Center,Searcy,AR,72143,1-501-263-2889
32497,Lexington Marketplace,"5336 Sunset Blvd., Suite B",Lexington Marketplace,Lexington,SC,29072,1-803-358-8435
32498,The Market at Czech Hall,"12444 Northwest 10th Street, Suite 601",The Market at Czech Hall,Yukon,OK,73099,1-405-324-2234
32499,Evergreen Plaza,9620 S. Western Ave.,Evergreen Plaza,Evergreen Park,IL,60805,1-708-229-0342
32500,Chimney Rock Crossing,352 Chimney Rock Road,Chimney Rock Crossing,Bound Brook,NJ,8805,1-908-332-0036
32502,Frandor Shopping Center,"350 Frandor Ave., #2",Frandor Shopping Center,Lansing,MI,48912,1-517-333-8970
32503,The Village at Meridian North,"2330 North Eagle Road, Suite 1003",The Village at Meridian North,Meridian,ID,83646,1-208-895-0988
32504,Nebraska Crossing Outlets,21417 Nebraska Crossing Drive,Nebraska Crossing Outlets,Gretna,NE,68028,1-402-332-2815
32505,Market Fair Shopping Center,1512 South Koeller Street,Market Fair Shopping Center,Oshkosh,WI,54902,1-920-235-0348
32506,Willows Lakes Plaza,3818 Midway Road,Willows Lakes Plaza,Goshen,IN,46526,1-574-875-9046
32507,The Meadows Shopping Center,251 North Meadow Lane,The Meadows Shopping Center,American Fork,UT,84003,1-801-492-3567
32508,Avon Commons,10397 East US Highway 36,Avon Commons,Avon,IN,46123,1-317-273-0061
32509,Fox Mill Centre,6730 Fox Centre Parkway,Fox Mill Centre,Gloucester,VA,23061,1-804-693-4290
32510,Escondido Promenade,1266-A Auto Park Way,Escondido Promenade,Escondido,CA,92029,1-760-740-8659
32511,Canyon Creek,1259 North Canyon Creek Parkway,Canyon Creek,Spanish Fork,UT,84660,1-801-798-7287
32512,Maple Village,"215 N. Maple, Suite E",Maple Village,Ann Arbor,MI,48103,1-734-205-2093
32513,Eastgate Shopping Center,"1800 East Franklin Street, Suite 30",Eastgate Shopping Center,Chapel Hill,NC,27514,1-919-960-6843
32514,Ontario Mills,"One Ontario Mills Circle, Suite 113",Ontario Mills,Ontario,CA,91764,1-909-466-0260
32515,Animas Valley Mall,"4601 East Main Street, Space 1130",Animas Valley Mall,Farmington,NM,87402,1-505-326-3010
32516,Danbury Fair Mall,"7 Backus Avenue, Space A205",Danbury Fair Mall,Danbury,CT,6810,1-203-205-2132
32517,Jefferson Valley Mall,"650 Lee Boulevard, Suite C12",Jefferson Valley Mall,Yorktown Heights,NY,10598,1-914-962-2635
32518,Olathe Pointe,14621 West 119th Street,Olathe Pointe,Olathe,KS,66062,1-913-390-9938
32519,The Ridge Marketplace,"120 Marketplace Boulevard, Unit 5",The Ridge Marketplace,Rochester,NH,3867,1-603-330-0058
32520,Mall at Greece Ridge,462 Greece Ridge Center Dr.,Mall at Greece Ridge,Rochester,NY,14626,1-585-371-5445
32521,Pulaski Promenade,4140 South Pulaski Road,Pulaski Promenade,Chicago,IL,60632,1-773-650-4899
32522,Pohatcong Plaza,1240 Route 22,Pohatcong Plaza,Phillipsburg,NJ,8865,1-908-213-7005
32523,Land Run Town Center,"4408 West Owen Garriott Road, Suite A",Land Run Town Center,Enid,OK,73703,1-580-234-5804
32524,Coddingtown Mall,361 Coddingtown Center,Coddingtown Mall,Santa Rosa,CA,95401,1-707-710-9413
32525,84South,8500 Sura Lane,84South,Greenfield,WI,53228,1-414-425-6750
32526,Poplar Commons,"4572 Poplar Avenue, Suite 103",Poplar Commons,Memphis,TN,38117,1-(901) 762-1005
32527,Bellis Fair Mall,One Bellis Fair Parkway,Bellis Fair Mall,Bellingham,WA,98226,1-360-671-6004
32528,Lafayette Pavilions,"200 S. Creasy Lane, Suite 3200",Lafayette Pavilions,Lafayette,IN,47905,1-765-446-2035
32529,Rolling Oaks Commons,3225 Rolling Oaks Boulevard,Rolling Oaks Commons,Kissimmee,FL,34747,1-407-239-1814
32530,South Branch Shopping Center,1750 Demille Road,South Branch Shopping Center,Lapeer,MI,48446,1-810-245-7792
32531,College Square Mall,2550 East Morris Boulevard,College Square Mall,Morristown,TN,37813,1-423-585-0645
32532,Taunton Crossing,9 Mozzone Boulevard,Taunton Crossing,Taunton,MA,2780,1-508-821-5931
32533,Beachmont Plaza,10071 Adams Avenue,Beachmont Plaza,Huntington Beach,CA,92646,1-714-377-0921
32534,Falcon Ridge Town Center,"15248 Summit Avenue, Suite 200",Falcon Ridge Town Center,Fontana,CA,92336,1-909-463-4005
32535,Garfield Commons,224 Passaic Street,Garfield Commons,Garfield,NJ,7026,1-973-365-0274
32536,Janss Marketplace,"205 Moorpark Rd., Suite C",Janss Marketplace,Thousand Oaks,CA,91360,1-805-230-3178
32537,White Marlin Mall,12641-216 Ocean Gateway,White Marlin Mall,Ocean City,MD,21842,1-410-213-1680
32538,Golf Mill Shopping Center,600 Golf Mill Center,Golf Mill Shopping Center,Niles,IL,60714,1-847-635-1089
32539,Goucher Commons,"803 Goucher Boulevard, Suite 301",Goucher Commons,Towson,MD,21286,1-410-296-0319
32540,Manhattan Town Center,"100 Manhattan Town Center, Suite 335",Manhattan Town Center,Manhattan,KS,66502,1-785-539-8491
32541,Hartwell Village,13350 Clemson Blvd.,Hartwell Village,Seneca,SC,29678,1-864-633-2316
32542,North Point Village Shopping Center,"7300 North Point Parkway, Suite 126",North Point Village Shopping Center,Alpharetta,GA,30022,1-770-619-2591
32543,The Marketplace,"2551 172nd Street Northeast, Suite 103",The Marketplace,Marysville,WA,98271,1-360-652-0702
32544,Westwood Village,"2600 SW Barton Street, Suite B-18",Westwood Village,Seattle,WA,98126,1-206-937-0622
32545,Inwood Village,"5550 West Lovers Lane, Suite 148",Inwood Village,Dallas,TX,75209,1-214-654-0852
32546,Mall at Johnson City,"2011 North Roan Street, Suite 25",Mall at Johnson City,Johnson City,TN,37601,1-423-283-0693
32547,Colonie Center,112 Colonie Center,Colonie Center,Albany,NY,12205,1-518-438-1642
32548,Washington Park,78-825 Highway 111,Washington Park,La Quinta,CA,92253,1-760-564-4795
32549,Westwood Village,10925 Kinross Ave.,Westwood Village,Los Angeles,CA,90024,1-310-443-0007
32550,Hanover Crossroads,"110 East Hanover Avenue, Suite C2",Hanover Crossroads,Cedar Knolls,NJ,7927,1-973-326-7924
32551,Vintner Square,2911 Queensgate Drive,Vintner Square,Richland,WA,99352,1-509-627-5105
32552,The Shoppes at Silver Lake,2423 SE Adams Blvd.,The Shoppes at Silver Lake,Bartlesville,OK,74006,1-918-331-9817
32553,Covington Crossing,"27339 Covington Way SE, Building A",Covington Crossing,Covington,WA,98042,1-(253) 631-0300
32554,Prairie Center,2287 Prairie Center Pkwy,Prairie Center,Brighton,CO,80601,1-303-659-9091
32555,Grand Central Mall,854 Grand Central Mall,Grand Central Mall,Vienna,WV,26105,1-304-440-5097
32556,Fashion Fair,"639 East Shaw Avenue, Suite 179",Fashion Fair,Fresno,CA,93710,1-559-244-0907
32557,Oglethorpe Square,"863 West Oglethorpe Highway, Suite 104",Oglethorpe Square,Hinesville,GA,31313,1-912-369-0654
32558,Pooler Pointe,"201 Tanger Outlet Blvd., Suite 400",Pooler Pointe,Pooler,GA,31322,1-912-450-1393
32559,Tomoka Town Center,"1115 Cornerstone Blvd, Suite K",Tomoka Town Center,Daytona Beach,FL,32114,1-386-888-5607
32560,St. Cloud Commons,"2785 E Irlo Bronson Memorial Hwy, #300",St. Cloud Commons,Kissimmee,FL,34744,1-407-846-0268
32561,Hopkinsville Towne Center,4859 Fort Campbell Blvd.,Hopkinsville Towne Center,Hopkinsville,KY,42240,1-270-886-9703
32562,Central Lakes Crossings,"13499 Elmwood Dr., Suite 130",Central Lakes Crossings,Baxter,MN,56425,1-218-454-2701
32563,The Shoppes of Mid Rivers,5232 I-70 N. Service Rd.,The Shoppes of Mid Rivers,St. Peters,MO,63376,1-636-278-2068
32564,Gates of Prosper,1031 S. Preston Road,Gates of Prosper,Prosper,TX,75078,1-972-346-5929
32566,Franklin Commons,1040 North Morton Street,Franklin Commons,Franklin,IN,46131,1-317-738-0013
32567,Lake Walden Square,243 W. Alexander St.,Lake Walden Square,Plant City,FL,33563,1-813-659-3792
32568,Mid State Plaza,"2450 South 9th Street, Suite 300",Mid State Plaza,Salina,KS,67401,1-785-825-1808
32569,The Village at Mitchell Ranch,8976 Strength Avenue,The Village at Mitchell Ranch,Trinity,FL,34655,1-727-842-9036
32570,Sequim Village Marketplace,1065 W. Washington Street,Sequim Village Marketplace,Sequim,WA,98382,1-360-912-8035
32571,Riviera Square,2532 S. McKenzie Street,Riviera Square,Foley,AL,36535,1-251-272-7142
32572,Cross Keys Commons,"3501 Rt. 42, Suite 100",Cross Keys Commons,Turnersville,NJ,8012,1-(856) 728-0324
32573,The Mall at Prince Georges,3500 East West Hwy #1442,The Mall at Prince Georges,Hyattsville,MD,20782,1-240-623-0200
32575,New Towne Mall,"400 Mill Ave Southeast, Suite 107",New Towne Mall,New Philadelphia,OH,44663,1-330-308-9315
32576,Westwood Plaza,"209 NW Bypass, Suite 2",Westwood Plaza,Great Falls,MT,59404,1-406-727-0282
32577,Brass Mill Commons,255 Union Street,Brass Mill Commons,Waterbury,CT,6706,1-203-346-0952
32578,Lincoln Crossing Shopping Center,"117 Ferrari Ranch Road, Suite 100",Lincoln Crossing Shopping Center,Lincoln,CA,95648,1-916-581-4121
32579,Heritage Place,12567 Olive Blvd,Heritage Place,Creve Coeur,MO,63141,1-314-878-7653
32580,Valley North Center,1370 N. Miller Street,Valley North Center,Wenatchee,WA,98801,1-509-662-1749
32581,Biscayne Commons,14791 Biscayne Blvd.,Biscayne Commons,North Miami Beach,FL,33181,1-305-956-3865
32582,Pincrest Plaza,11751 S. Dixie Highway,Pincrest Plaza,Pinecrest,FL,33156,1-305-969-8029
32583,Pier Park North,"15600 Panama City Beach Parkway, Space #240",Pier Park North,Panama City Beach,FL,32413,1-850-235-1127
32584,Midlothian Town Crossing,"2000 F.M. 663, Suite 600",Midlothian Town Crossing,Midlothian,TX,76065,1-972-775-5458
32585,Westwood Shopping Center,"7765 Airport Boulevard, Suite 801",Westwood Shopping Center,Mobile,AL,36608,1-251-639-4728
32586,Promenade at Carolina Reserve,"7796 Charlotte Highway, Suite #100",Promenade at Carolina Reserve,Indian Land,SC,29707,1-803-592-3350
32587,Renaissance Marketplace,"1215 W. Renaissance Parkway, Suite 650",Renaissance Marketplace,Rialto,CA,92376,1-909-566-0470
32588,Crossroads Centre,9876 U.S. 20,Crossroads Centre,Rossford,OH,43460,1-419-874-6790
32589,Machesney Crossings,1033 West Lane Road,Machesney Crossings,Machesney Park,IL,61115,1-815-633-2711
32590,Lebanon Plaza,"1301 Quentin Rd., Suite 100",Lebanon Plaza,Lebanon,PA,17042,1-717-273-3273
32591,Michigan Avenue,430 North Michigan Avenue,Michigan Avenue,Chicago,IL,60611,1-312-527-9045
32592,Bonita Points,"2431 N. Federal Hwy., Space 101",Bonita Points,Pompano Beach,FL,33064,1-954-946-3153
32593,RK Middletown Square,"1307 West Main Road, Space 6B",RK Middletown Square,Middletown,RI,2842,1-401-847-0705
32594,Willow Festival Center,"936 Willow Road, Unit C",Willow Festival Center,Northbrook,IL,60062,1-847-486-9925
32595,Columbus Center,3090 Columbus Center,Columbus Center,Columbus,IN,47203,1-812-375-0565
32596,Shoppes at Longwood Village,861 E. Baltimore Pike,Shoppes at Longwood Village,Kennett Square,PA,19348,1-484-739-1901
32597,Crossroads Commons Shopping Center,200 Crossroads Drive,Crossroads Commons Shopping Center,Plover,WI,54467,1-715-343-0512
32598,Main Street,200 Cherokee Place,Main Street,Cartersville,GA,30121,1-770-606-9135
32600,The Shops at Bradley Square,"300 Paul Huff Parkway, Unit 200",The Shops at Bradley Square,Cleveland,TN,37312,1-423-250-8002
32601,Germantown Village Sqaure,7680 Poplar Avenue,Germantown Village Sqaure,Germantown,TN,38138,1-901-751-9786
32602,Cornerstone Marketplace,231 Cornerstone Boulevard,Cornerstone Marketplace,Hot Springs,AR,71913,1-501-520-0617
32603,Marshalls Plaza-Dewitt,"3409 Erie Boulevard East, Suite 130",Marshalls Plaza-Dewitt,DeWitt,NY,13214,1-315-446-2686
32604,Pine Ridge Crossing Shopping Center,2334 Pine Ridge Road,Pine Ridge Crossing Shopping Center,Naples,FL,34109,1-239-430-0353
32605,Dawsonville,"136 Marketplace Parkway, Suite 180",Dawsonville,Dawsonville,GA,30534,1-706-265-2289
32606,Dania Pointe,1760 S. Bearing St.,Dania Pointe,Dania Beach,FL,33004,1-954-342-6439
32607,Westfork Plaza,"15855 Pines Blvd., Suite #104",Westfork Plaza,Pembroke Pines,FL,33027,1-954-342-0929
32608,Shops at 29,"2700 West Expressway 83, Building 400, Suite 430",Shops at 29,McAllen,TX,78501,1-956-631-1338
32609,South County Retail Center,4120 Elm Park Drive,South County Retail Center,St. Louis,MO,63128,1-314-892-8879
32610,Crossroads Plaza,30 Glen Cove Road,Crossroads Plaza,Greenvale,NY,11548,1-516-626-1642
32611,The Spring,5200 East Ramon Road,The Spring,Palm Springs,CA,92264,1-442-268-0477
32612,Woodlands Square Shopping Center,3142 Tampa Road,Woodlands Square Shopping Center,Oldsmar,FL,34677,1-727-205-1736
32613,Cross County Shopping Center,5160 Xavier Dr.,Cross County Shopping Center,Yonkers,NY,10704,1-914-965-1396
32614,Brazos Mall,"100 Highway 332 W., Suite 1102",Brazos Mall,Lake Jackson,TX,77566,1-(979) 299-2356
32615,Kings Plaza,"5100 Kings Plaza, Suite 140",Kings Plaza,Brooklyn,NY,11234,1-718-377-2191
32616,One Bellevue Place,8169 Sawyer Brown Rd,One Bellevue Place,Nashville,TN,37221,1-629-206-2419
32617,Market East Shopping Center,"1655 N. Town East Blvd., Suite 200",Market East Shopping Center,Mesquite,TX,75150,1-972-270-6622
32618,Village at Totem Lake,"12632 Totem Lake Blvd., Suite 144",Village at Totem Lake,Kirkland,WA,98034,1-425-285-7131
32619,The Shoppes at Livermore,3090 West Jack London Boulevard,The Shoppes at Livermore,Livermore,CA,94551,1-925-292-6709
32620,Robal Road Village,20500 Robal Lane,Robal Road Village,Bend,OR,97701,1-541-633-4477
32621,Breckenridge Shopping Center,12830 Jefferson Davis Highway,Breckenridge Shopping Center,Chester,VA,23831,1-804-930-8031
32622,Marketplace @ Dr. Phillips,7699 W. Sand Lake Rd.,Marketplace @ Dr. Phillips,Orlando,FL,32819,1-321-666-8743
32623,Yuba City Marketplace,"1068 Harter Pkwy, Suite A",Yuba City Marketplace,Yuba City,CA,95993,1-530-822-9804
32624,Northeast Shopping Center,"9173 Roosevelt Blvd, Space 10",Northeast Shopping Center,Philadelphia,PA,19114,1-215-969-1453
32625,Merchants Square,"935 Bob Wallace Avenue SW, Suite #109",Merchants Square,Huntsville,AL,35801,1-256-342-9534
32626,South Bay Expansion,32 District Ave.,South Bay Expansion,Dorchester,MA,2125,1-617-740-0680
32627,Golden Hill Shops,2238 3rd Ave. SE,Golden Hill Shops,Rochester,MN,55904,1-507-516-0064
32628,Ulta Beauty,10805 Highland Road,Ulta Beauty,White Lake,MI,48386,1-248-698-0040
32629,Upland Square Shopping Center,290 Upland Square Drive,Upland Square Shopping Center,Pottstown,PA,19464,1-484-644-2066
32630,Riverchase Promenade,1721 Montgomery Highway South,Riverchase Promenade,Hoover,AL,35244,1-205-682-2781
32631,Woodland Gateway,2135 Bronze Star Dr.,Woodland Gateway,Woodland,CA,95776,1-530-631-0379
32632,Pentagon Row,"1101 South Joyce St., Suite B01",Pentagon Row,Arlington,VA,22202,1-703-258-3371
32634,Hamilton Marketplace,540 Spirit of 76 Blvd,Hamilton Marketplace,Hamilton Township,NJ,8691,1-609-528-7405
32635,Homestead Pavilion,2601 NE 10th Court,Homestead Pavilion,Homestead,FL,33033,1-786-572-1112
32636,Upper East Side,188 East 86th St.,Upper East Side,New York,NY,10028,1-212-828-3180
32637,Memorial Crossing,"10122 S. Memorial Drive, Suite C",Memorial Crossing,Tulsa,OK,74133,1-918-970-4594
32638,Cascades Station,10245 NE Cascades Parkway,Cascades Station,Portland,OR,97220,1-(503) 288-3620
32639,The Marketplace East at Grand Crossing,21650 Valley Blvd.,The Marketplace East at Grand Crossing,City of Industry,CA,91789,1-9094446859
32640,City Avenue Shopping Center,"7600 City Line Ave., Unit 1",City Avenue Shopping Center,Philadelphia,PA,19151,1-215-452-5328
32641,Greer,"1316 Wade Hampton Blvd., Suite B",Greer,Greer,SC,29650,1-864-662-3602
32642,Mall St. Matthews,"5000 Shelbyville Rd., Suite D155",Mall St. Matthews,Louisville,KY,40207,1-502-305-4679
32643,Mall of America,215 East Broadway,Mall of America,Bloomington,MN,55425,1-952-854-1208
32644,Wrangleboro Consumer Square I & II,260 Consumer Square,Wrangleboro Consumer Square I & II,Mays Landing,NJ,8330,1-609-677-8278
32645,Bradley West Shopping Center,755 E. Betteravia Road,Bradley West Shopping Center,Santa Maria,CA,93458,1-805-825-0093
32646,Kemah Marketplace,417 FM 518,Kemah Marketplace,Kemah,TX,77565,1-346-209-4201
32647,Willamette Town Center,"831 Lancaster Drive NE, Suite #181",Willamette Town Center,Salem,OR,97301,1-503-967-9783
32651,Mundelein Crossing,3050 West IL Rt 60,Mundelein Crossing,Mundelein,IL,60060,1-847-566-3602
32652,Huebner Oaks,"11745 W Interstate Hwy 10, Suite 701",Huebner Oaks,San Antonio,TX,78230,1-(210) 694-4308
32653,Arvada Marketplace,7420 W. 52nd Ave.,Arvada Marketplace,Arvada,CO,80002,1-303-422-1839
32654,SouthCoast Marketplace,570 William S. Canning Blvd.,SouthCoast Marketplace,Fall River,MA,2721,1-774-357-1237
32655,Westport,1365 Post Road East,Westport,Westport,CT,6880,1-203-480-0454
32656,Valley Ranch Town Center,21524 Market Place Dr.,Valley Ranch Town Center,New Caney,TX,77357,1-281-747-3122
32657,West Bay Plaza,"30014 Detroit Rd., Suite 220",West Bay Plaza,Westlake,OH,44145,1-440-899-5243
32658,Boynton Commons,"363 North Congress Ave, Bay 105",Boynton Commons,Boynton Beach,FL,33426,1-561-903-2003
32659,Dove Creek,"415 W. Loop 1604 S., Suite 142",Dove Creek,San Antonio,TX,78253,1-210-874-5810
32660,Magnolia Square,2015 Crow Canyon Place,Magnolia Square,San Ramon,CA,94583,1-925-815-8061
32663,Hiram Pavilion,5220 Jimmy Lee Smith Pkwy,Hiram Pavilion,Hiram,GA,30141,1-678-424-5450
32664,Allaire Plaza,1933 Route 35 South,Allaire Plaza,Wall Township,NJ,7719,1-732-655-6957
32665,Courtyard at the Commons,"23741 Calabasas Rd., Suite A",Courtyard at the Commons,Calabasas,CA,91302,1-818-918-4350
32666,Staten Island Mall,"2655 Richmond Ave., Space 1405",Staten Island Mall,Staten Island,NY,10314,1-929-314-1830
32667,Maple Hill Pavilion,5220 W. Main St.,Maple Hill Pavilion,Kalamazoo,MI,49009,1-269-888-1424
32668,Cochrane Commons,1027 Cochrane Road,Cochrane Commons,Morgan Hill,CA,95037,1-408-659-4877
32669,Westwood Plaza,"1812 Sam Rittenberg Boulevard, Unit #10",Westwood Plaza,Charleston,SC,29407,1-843-405-9053
32670,Vineyards at Porter Ranch,20045 W. Rinaldi Street,Vineyards at Porter Ranch,Porter Ranch,CA,91326,1-818-488-2018
32671,Shoppes at Whitestown,"6140 Mills Drive, Suite 600",Shoppes at Whitestown,Whitestown,IN,46075,1-317-396-6651
32672,Owasso,"9018 N. 121st E. Ave., Suite 500",Owasso,Owasso,OK,74055,1-918-973-6449
32673,Towne Center at Cedar Lodge,"7445 Corporate Blvd, Suite 500",Towne Center at Cedar Lodge,Baton Rouge,LA,70809,1-225-800-3457
32674,Wethersfield Shopping Center,1053 Silas Deane Highway,Wethersfield Shopping Center,Wethersfield,CT,6109,1-860-952-2937
32675,Lacey Marketplace,1230 Marvin Road,Lacey Marketplace,Lacey,WA,98516,1-360-338-6797
32676,Crescent Plaza,155B Crescent Plaza,Crescent Plaza,Pleasant Hill,CA,94523,1-925-329-3975
32678,Ashland Town Center,"500 Winchester Ave., Suite 142",Ashland Town Center,Ashland,KY,41101,1-606-385-2671
32680,Pico Rivera Towne Center,8620 Washington Blvd.,Pico Rivera Towne Center,Pico Rivera,CA,90660,1-562-655-7064
32681,Town & Country Village,2717 Marconi Ave.,Town & Country Village,Sacramento,CA,95821,1-916-713-1166
32683,Walnut Square Shopping Center,"1310 W. Walnut Ave., Suite 1",Walnut Square Shopping Center,Dalton,GA,30720,1-706-873-8032
32685,Water Tower Place,"4100 University Ave, Suite 116",Water Tower Place,West Des Moines,IA,50266,1-515-207-5536
32686,Valley Plaza,797 N Westwood Blvd.,Valley Plaza,Poplar Bluff,MO,63901,1-573-727-8460
32687,Pu'unene Shopping Center,"66 Ho'okele Street, Unit 1110",Pu'unene Shopping Center,Kahului,HI,96732,1-808-868-5698
32688,Pearl Highlands Center,"1000 Kamehameha Highway, Suite 224",Pearl Highlands Center,Pearl City,HI,96782,1-808-638-4701
32689,Long Beach Exchange,4200 Carson Street,Long Beach Exchange,Long Beach,CA,90808,1-562-541-8132
32690,Mountain View Village,"4604 W. Kestrel Range Rd., Suite #A120",Mountain View Village,Riverton,UT,84065,1-385-247-1470
32691,Kailua Town Center,"609 Kailua Road, Suite #106",Kailua Town Center,Kailua,HI,96734,1-808-824-4017
32692,Uptown Station,"99 Eglin Parkway, Suite 1B",Uptown Station,Fort Walton Beach,FL,32548,1-850-533-8010
32693,Kapolei Commons,"4450 Kapolei Parkway, Space 230",Kapolei Commons,Kapolei,HI,96707,1-808-824-4834
32694,Maryville Commons,734 Watkins Rd.,Maryville Commons,Maryville,TN,37801,1-865-324-0004
32696,Quaker Crossing Retail Center,3489 Amelia Drive,Quaker Crossing Retail Center,Orchard Park,NY,14127,1-716-826-2152
32697,The Shops at Watchung,"1630 US Route 22, Building A",The Shops at Watchung,Watchung,NJ,7069,1-908-561-4499
32698,Yuma Palms Regional Center,"1448 S. Yuma Palms Parkway, Suite A",Yuma Palms Regional Center,Yuma,AZ,85365,1-(928) 955-8153
32699,Main Street Commons,3627 E. Main St.,Main Street Commons,St. Charles,IL,60174,1-331-771-7525
32700,The Outlet Collection,"1101 Outlet Collection Way, Suite 1060",The Outlet Collection,Auburn,WA,98001,1-253-258-3398
32701,North Village Shopping Center,875 Route 1 South,North Village Shopping Center,North Brunswick,NJ,8902,1-732-447-2980
32702,Epic West Towne Crossing,"3166 S. Highway 161, Suite 150",Epic West Towne Crossing,Grand Prairie,TX,75052,1-469-660-1713
32703,Wilshire Plaza,5628 Grape Road,Wilshire Plaza,Mishawaka,IN,46545,1-574-247-1541
32704,Granbury Lakeside Center,1410 E. Highway 377,Granbury Lakeside Center,Granbury,TX,76048,1-682-719-4370
32705,Crossroads at Terrell,670 American Way,Crossroads at Terrell,Terrell,TX,75160,1-null
32706,South Plaza Vista Center,501 N. Highway 90,South Plaza Vista Center,Sierra Vista,AZ,85635,1-520-685-1671
32707,Lake Woodlands Crossing,"1900 Lake Woodlands Drive, Suite 800",Lake Woodlands Crossing,The Woodlands,TX,77380,1-281-419-7405
32709,Carmel Mountain Gateway Plaza,11485 Carmel Mountain Rd.,Carmel Mountain Gateway Plaza,San Diego,CA,92128,1-858-376-4574
32710,Mira Mesa Market Center,10653 Westview Parkway,Mira Mesa Market Center,San Diego,CA,92126,1-858-300-7931
32711,Columbus Crossing,"1851 S. Columbus Blvd., Space #7",Columbus Crossing,Philadelphia,PA,19148,1-267-831-4370
32712,Crossroads Shopping Center,135 Skokie Valley Road,Crossroads Shopping Center,Highland Park,IL,60035,1-224-707-9936
32713,Westminster Crossing East,"200 Clifton Boulevard, Suite E",Westminster Crossing East,Westminster,MD,21157,1-410-871-8856
32714,Twin Creeks Shopping Center,8520 N. Madison Ave.,Twin Creeks Shopping Center,Kansas City,MO,64155,1-816-381-4850
32715,Roosevelt Square,4397 Roosevelt Boulevard,Roosevelt Square,Jacksonville,FL,32210,1-904-404-2563
32716,Promenade at Tuskawilla,"1425 Tuskawilla Road, Suite 239",Promenade at Tuskawilla,Winter Springs,FL,32708,1-321-244-7607
32717,The Launch at Hingham Shipyard,6 Shipyard Dr.,The Launch at Hingham Shipyard,Hingham,MA,2043,1-781-875-8556
32718,The Shops at Northfield Stapleton,"8560 E. Northfield Boulevard, Unit #1930",The Shops at Northfield Stapleton,Denver,CO,80238,1-720-710-2901
32719,Marketplace at Laguna Niguel,"27080 Alicia Parkway, Suite B",Marketplace at Laguna Niguel,Laguna Niguel,CA,92677,1-949-340-9131
32720,Maple Tree Place,41 Hawthorne Street,Maple Tree Place,Williston,VT,5495,1-802-662-0046
32721,Richmond Centre,2211 Lantern Ridge Drive,Richmond Centre,Richmond,KY,40475,1-859-237-8003
32722,Crystal Point Mall,5774 Northwest Highway,Crystal Point Mall,Crystal Lake,IL,60014,1-815-301-5798
32723,Woodbridge Crossing,"3340 W. FM 544, Suite 890",Woodbridge Crossing,Wylie,TX,75098,1-469-991-5917
32724,League City Towne Center,"3120 Gulf Freeway South, Suite A",League City Towne Center,League City,TX,77573,1-346-289-2002
32725,Pleasant Valley Promenade,"6250 Glenwood Avenue, Suite 104",Pleasant Valley Promenade,Raleigh,NC,27612,1-984-238-9452
32728,Monrovia Landing,729 E. Huntington Dr.,Monrovia Landing,Monrovia,CA,91016,1-626-275-8033
32729,Mullins Crossing,"4217 Washington Rd., Suite 2",Mullins Crossing,Evans,GA,30809,1-706-426-0481
32730,Belton Gateway,551 E. Markey Parkway,Belton Gateway,Belton,MO,64012,1-816-348-3087
32731,Waterview Marketplace,46 Waterview Blvd.,Waterview Marketplace,Parsippany,NJ,7054,1-973-658-7289
32732,Hilliard Rome Commons,1768 Hilliard Rome Road,Hilliard Rome Commons,Hilliard,OH,43026,1-614-710-4050
32733,Wolf Ranch,"1019 West University Avenue, Suite 1005",Wolf Ranch,Georgetown,TX,78628,1-737-245-0758
32734,Woodinville Plaza,14019 NE Woodinville Duvall Road,Woodinville Plaza,Woodinville,WA,98072,1-425-659-2820
32735,Stillwater Marketplace,1891 Market Dr.,Stillwater Marketplace,Stillwater,MN,55082,1-651-504-5789
32736,Derby Marketplace,1924 N. Rock Road,Derby Marketplace,Derby,KS,67037,1-316-330-4719
32738,Country Club Mall,"1262 Vocke Road, Space 220",Country Club Mall,Cumberland,MD,21502,1-240-860-1050
32739,Hilltop Plaza,511 Hilltop Plaza,Hilltop Plaza,Virginia Beach,VA,23454,1-757-937-7988
32741,Wildewood Shopping Center,"23415 Three Notch Road, Unit #2035",Wildewood Shopping Center,California,MD,20619,1-240-718-6880
32744,Trumbull,"5065 Main St., Space #306",Trumbull,Trumbull,CT,6611,1-203-601-7138
32745,Barrow Crossing,"916 Loganville Highway, Building 1300",Barrow Crossing,Bethlehem,GA,30620,1-(470) 900-0051
32746,Seekonk Square,7 Commerce Way,Seekonk Square,Seekonk,MA,2771,1-508-618-5942
32747,Ulta Center,1030 N. Stratford Road,Ulta Center,Moses Lake,WA,98837,1-509-361-5245
32749,Gateway Marketplace,"2001 Marlin Drive, Unit 900",Gateway Marketplace,Jacksonville,NC,28546,1-910-548-7514
32750,Plattsburgh Consumer Square,59 Consumer Square,Plattsburgh Consumer Square,Plattsburgh,NY,12901,1-518-314-1758
32751,Lompoc Center,"615 North H Street, Hwy 1",Lompoc Center,Lompoc,CA,93436,1-805-742-8927
32752,Ruston Marketplace,1222 Woodward Avenue,Ruston Marketplace,Ruston,LA,71270,1-318-257-8445
32754,Gallina Centro,3569 S. Houston Levee Road,Gallina Centro,Collierville,TN,38017,1-901-472-2964
32755,Evergreen Crossing,13810 E. Indiana Avenue,Evergreen Crossing,Spokane Valley,WA,99216,1-509-960-6384
32756,Van Rensselaer Square,"102 Van Rensselaer Square, Suite I",Van Rensselaer Square,Rensselaer,NY,12144,1-518-960-3123
32757,Hadley Center,"5016 Hadley Center Drive, Space 30",Hadley Center,South Plainfield,NJ,7080,1-908-941-0852
32758,Bridgehampton Commons,"2044 Montauk Highway, Ste. #54 & #59",Bridgehampton Commons,Bridgehampton,NY,11932,1-631-613-4041
32759,Knapp's Crossing,2080 East Beltline Ave NE,Knapp's Crossing,Grand Rapids,MI,49525,1-616-369-3481
32760,Posner Village,1181 Posner Blvd.,Posner Village,Davenport,FL,33837,1-863-695-1044
32763,Crossroads Center,"4101 West Division Street, Suite 25",Crossroads Center,St. Cloud,MN,56301,1-320-251-0048
32764,Fashion District Philadelphia,"1021 Market Street, #1175",Fashion District Philadelphia,Philadelphia,PA,19107,1-267-214-1627
32765,Pavilion at Kings Grant,8052 Concord Mills Boulevard,Pavilion at Kings Grant,Concord,NC,28027,1-704-709-5606
32766,New River Valley Mall,"782 New River Road, Suite 602",New River Valley Mall,Christiansburg,VA,24073,1-540-251-7244
32767,Arundel Mills,"7000 Arundel Mills Circle, Space 435",Arundel Mills,Hanover,MD,21076,1-667-701-1317
32768,The Summit Sierra,"13985 S. Virginia Street, Suite #800",The Summit Sierra,Reno,NV,89511,1-775-418-5949
32769,Buena Park Place,8375 La Palma Ave,Buena Park Place,Buena Park,CA,90620,1-657-298-2147
32770,Broadmoor Towne Center,"2120 Southgate Road, Suite 110",Broadmoor Towne Center,Colorado Springs,CO,80906,1-719-374-9052
32774,Woodfield Village Green,1470A East Golf Road,Woodfield Village Green,Schaumburg,IL,60173,1-847-240-2723
32775,Sycamore Commons,"2113 Matthews Township Parkway, Unit D",Sycamore Commons,Matthews,NC,28105,1-(704) 443-5002
32777,University Commons,"13574 University Blvd., #300",University Commons,Sugarland,TX,77479,1-281-265-9304
32779,Franklin Park Commons,5504 N. Division Street,Franklin Park Commons,Spokane,WA,99208,1-509-570-7301
32781,Grande Shopping Center,"3201 Route 9 South, Unit G",Grande Shopping Center,Rio Grande,NJ,8242,1-609-780-8401
32783,Shoppers World,"1 Worcester Road, Suite #515B",Shoppers World,Framingham,MA,1701,1-508-433-7275
32785,The Shoppes of Blackstone Valley,"70 Worcester Providence Turnpike, Suite 250",The Shoppes of Blackstone Valley,Millbury,MA,1527,1-(508) 581-5060
32787,Casa Linda Plaza,"9440 Garland Road, Suite 210",Casa Linda Plaza,Dallas,TX,75218,1-469-498-1740
32788,Jeffersonville Town Center,4231 Town Center Blvd,Jeffersonville Town Center,Jeffersonville,IN,47130,1-(812) 920-4727
32789,Wareham Crossing,"2421 Cranberry Highway, Suite 461",Wareham Crossing,Wareham,MA,2571,1-(774) 326-1254
32791,Southport Plaza,"1017 Montauk Highway, Unit 2",Southport Plaza,Shirley,NY,11967,1-631-657-2432
32792,Las Estancias,"3700 Las Estancias Way, Suite C",Las Estancias,Albuquerque,NM,87121,1-505-207-6623
32798,Holly Park Shopping Center,3070 Wake Forest Road,Holly Park Shopping Center,Raleigh,NC,27609,1-984-238-0130
32799,The Summit,317 Summit Boulevard,The Summit,Birmingham,AL,35243,1-205-440-4333
32800,Midtown Square,1349 Coolidge Highway,Midtown Square,Troy,MI,48084,1-248-581-9096
32804,Nez Perce Plaza,2638 Nez Perce Dr.,Nez Perce Plaza,Lewiston,ID,83501,1-208-816-7475
32806,John's Creek Town Center,"3630 Peachtree Parkway, Unit 102",John's Creek Town Center,Johns Creek,GA,30024,1-470-567-3960
32812,Marketplace at Hamden,"2335 Dixwell Avenue, Suite D2",Marketplace at Hamden,Hamden,CT,6514,1-203-234-1489
32814,Plaza El Segundo,780 South Pacific Coast Highway,Plaza El Segundo,El Segundo,CA,90245,1-424-321-7623
32815,Lakewood Towne Center,10310 59th Ave SW,Lakewood Towne Center,Lakewood,WA,98499,1-253-527-5456
32835,Century III Plaza,9925 Mountain View Drive,Century III Plaza,West Mifflin,PA,15122,1-412-693-0394
